{"type":"FeatureCollection","features":[{"type":"Feature","geometry":{"type":"Point","coordinates":[55.6821,26.02546141]},"properties":{"event_id":1,"data_org":"Green","date":"2026-03-01T00:00:00.000Z","reprt_time":"","vesselname":"Hercules Star","IMO":"","MMSI":"","flag":"Gibraltar","location":"17 NM NW of Mina Saqr, UAE","latitude":26.02546141,"longitude":55.6821,"coord_type":"exact","source_1":"https://x.com/UK_MTO/status/2028099126475288999","source_2":"","sources":"","GlobalID":"b11f6081-1c10-4287-ac29-2753745a9d29","CreationDa":"2026-07-27T00:00:00.000Z","Creator":"nkramer_understandingwar","EditDate":"2026-07-27T00:00:00.000Z","Editor":"nkramer_understandingwar"}},{"type":"Feature","geometry":{"type":"Point","coordinates":[54.66867003,25.433038610000004]},"properties":{"event_id":3,"data_org":"Green","date":"2026-03-01T00:00:00.000Z","reprt_time":"","vesselname":"Unspecified","IMO":"","MMSI":"","flag":"","location":"35 NM W of Sharjah, UAE","latitude":25.43303861,"longitude":54.66867003,"coord_type":"general neighborhood","source_1":"https://www.ukmto.org/-/media/ukmto/products/20260301-ukmto_warning_007-26.pdf?rev=1310942307354054be18457486b45038","source_2":"","sources":"","GlobalID":"a42e288a-806d-44d3-a8db-d766ab74339f","CreationDa":"2026-07-27T00:00:00.000Z","Creator":"nkramer_understandingwar","EditDate":"2026-07-27T00:00:00.000Z","Editor":"nkramer_understandingwar"}},{"type":"Feature","geometry":{"type":"Point","coordinates":[58.50308927,24.530380459999986]},"properties":{"event_id":4,"data_org":"Green","date":"2026-03-01T00:00:00.000Z","reprt_time":"","vesselname":"MKD Vyom","IMO":"","MMSI":"","flag":"Marshall Islands","location":"44.4 NM NW of Muscat, Oman","latitude":24.53038046,"longitude":58.50308927,"coord_type":"exact","source_1":"https://x.com/MarineTraffic/status/2028104988845543654?ref_src=twsrc%5Egoogle%7Ctwcamp%5Eserp%7Ctwgr%5Etweet","source_2":"https://t.me/farsna/414226","sources":"","GlobalID":"b4b7bcb1-53e1-43da-8c4a-1013c67373c8","CreationDa":"2026-07-27T00:00:00.000Z","Creator":"nkramer_understandingwar","EditDate":"2026-07-27T00:00:00.000Z","Editor":"nkramer_understandingwar"}},{"type":"Feature","geometry":{"type":"Point","coordinates":[56.37738927,26.51974237999999]},"properties":{"event_id":8,"data_org":"Green","date":"2026-03-02T00:00:00.000Z","reprt_time":"","vesselname":"Athen Nova","IMO":"","MMSI":"","flag":"Honduras","location":"Strait of Hormuz","latitude":26.51974238,"longitude":56.37738927,"coord_type":"general neighborhood","source_1":"https://x.com/JoeTruzman/status/2028544254696620415?s=20","source_2":"","sources":"","GlobalID":"df074744-47ab-45e1-8e96-2b07df973022","CreationDa":"2026-07-27T00:00:00.000Z","Creator":"nkramer_understandingwar","EditDate":"2026-07-27T00:00:00.000Z","Editor":"nkramer_understandingwar"}},{"type":"Feature","geometry":{"type":"Point","coordinates":[56.50277854,25.20829997999999]},"properties":{"event_id":10,"data_org":"Green","date":"2026-03-03T00:00:00.000Z","reprt_time":"","vesselname":"Gold Oak","IMO":"","MMSI":"","flag":"Panama","location":"7 NM E of Fujairah, UAE","latitude":25.20829998,"longitude":56.50277854,"coord_type":"exact","source_1":"https://x.com/UK_MTO/status/2029240527879655542","source_2":"","sources":"","GlobalID":"7ef159e1-def0-4bcc-b2fa-530a2ab02f0e","CreationDa":"2026-07-27T00:00:00.000Z","Creator":"nkramer_understandingwar","EditDate":"2026-07-27T00:00:00.000Z","Editor":"nkramer_understandingwar"}},{"type":"Feature","geometry":{"type":"Point","coordinates":[56.5635,25.281699999999997]},"properties":{"event_id":11,"data_org":"Green","date":"2026-03-03T00:00:00.000Z","reprt_time":"","vesselname":"Libra Trader","IMO":"","MMSI":"","flag":"Marshall Islands","location":"10 NM E of Fujairah, UAE","latitude":25.2817,"longitude":56.5635,"coord_type":"exact","source_1":"https://x.com/UK_MTO/status/2029240527879655542","source_2":"","sources":"","GlobalID":"07ab9175-95d7-4ef4-ba94-ec2b87fd38c8","CreationDa":"2026-07-27T00:00:00.000Z","Creator":"nkramer_understandingwar","EditDate":"2026-07-27T00:00:00.000Z","Editor":"nkramer_understandingwar"}},{"type":"Feature","geometry":{"type":"Point","coordinates":[60.895599999999995,22.798899999999996]},"properties":{"event_id":12,"data_org":"Green","date":"2026-03-03T00:00:00.000Z","reprt_time":"","vesselname":"Unspecified Vessel","IMO":"","MMSI":"","flag":"","location":"137 NM E of Muscat, Oman","latitude":22.7989,"longitude":60.8956,"coord_type":"general neighborhood","source_1":"https://x.com/UK_MTO/status/2029240527879655542","source_2":"","sources":"","GlobalID":"eee9f653-66ad-4fa8-b3e5-50a4d3c70a29","CreationDa":"2026-07-27T00:00:00.000Z","Creator":"nkramer_understandingwar","EditDate":"2026-07-27T00:00:00.000Z","Editor":"nkramer_understandingwar"}},{"type":"Feature","geometry":{"type":"Point","coordinates":[56.3458,26.40529999999999]},"properties":{"event_id":13,"data_org":"Green","date":"2026-03-04T00:00:00.000Z","reprt_time":"","vesselname":"Safeen Prestige","IMO":"","MMSI":"","flag":"Malta","location":"2 NM off Omani Coast","latitude":26.4053,"longitude":56.3458,"coord_type":"exact","source_1":"https://x.com/UK_MTO/status/2029240527879655542/photo/1","source_2":"","sources":"","GlobalID":"355fd1d7-aa82-4388-9150-019e6d2e62b8","CreationDa":"2026-07-27T00:00:00.000Z","Creator":"nkramer_understandingwar","EditDate":"2026-07-27T00:00:00.000Z","Editor":"nkramer_understandingwar"}},{"type":"Feature","geometry":{"type":"Point","coordinates":[54.68994141,25.203698609999996]},"properties":{"event_id":14,"data_org":"Green","date":"2026-03-04T00:00:00.000Z","reprt_time":"","vesselname":"MSC Grace","IMO":"","MMSI":"","flag":"Liberia","location":"20 NM W of Dubai, UAE","latitude":25.20369861,"longitude":54.68994141,"coord_type":"exact","source_1":"https://x.com/UK_MTO/status/2029240527879655542","source_2":"https://www.marinetraffic.com/en/ais/details/ships/shipid:10176590/mmsi:636025634/imo:9987366/vessel:MSC%20GRACE","sources":"","GlobalID":"f0ac13b6-6e8c-4a55-a53a-fad6e3e38042","CreationDa":"2026-07-27T00:00:00.000Z","Creator":"nkramer_understandingwar","EditDate":"2026-07-27T00:00:00.000Z","Editor":"nkramer_understandingwar"}},{"type":"Feature","geometry":{"type":"Point","coordinates":[48.84290000000001,29.55999999999999]},"properties":{"event_id":15,"data_org":"Green","date":"2026-03-04T00:00:00.000Z","reprt_time":"","vesselname":"Unspecified Tanker","IMO":"","MMSI":"","flag":"","location":"30 NM SE of Mubarak al Kabeer, Kuwait (Iraqi Territorial Waters)","latitude":29.56,"longitude":48.8429,"coord_type":"exact","source_1":"https://x.com/UK_MTO/status/2029603749413441837","source_2":"","sources":"","GlobalID":"95ca1df9-6842-4760-8e89-e199ee6652e7","CreationDa":"2026-07-27T00:00:00.000Z","Creator":"nkramer_understandingwar","EditDate":"2026-07-27T00:00:00.000Z","Editor":"nkramer_understandingwar"}},{"type":"Feature","geometry":{"type":"Point","coordinates":[48.7211,29.599599999999988]},"properties":{"event_id":16,"data_org":"Green","date":"2026-03-05T00:00:00.000Z","reprt_time":"","vesselname":"Unspecified Crude Oil Tanker","IMO":"","MMSI":"","flag":"Bahamas","location":"Khor al Zubair port, Iraq","latitude":29.5996,"longitude":48.7211,"coord_type":"exact","source_1":"https://www.reuters.com/world/middle-east/more-tankers-come-under-attack-us-iran-conflict-spreads-region-2026-03-05/","source_2":"","sources":"","GlobalID":"1f3792ed-8681-442a-8056-e1cc0a794d0a","CreationDa":"2026-07-27T00:00:00.000Z","Creator":"nkramer_understandingwar","EditDate":"2026-07-27T00:00:00.000Z","Editor":"nkramer_understandingwar"}},{"type":"Feature","geometry":{"type":"Point","coordinates":[56.38366708,26.429792470000006]},"properties":{"event_id":17,"data_org":"Green","date":"2026-03-06T00:00:00.000Z","reprt_time":"","vesselname":"Mussafah 2","IMO":"","MMSI":"","flag":"UAE","location":"6 NM N of Oman in the Strait of Hormuz","latitude":26.42979247,"longitude":56.38366708,"coord_type":"exact","source_1":"https://x.com/UK_MTO/status/2029915997096829122","source_2":"https://www.bbc.com/news/live/ceqvwrydzpqt?post=asset%3A7fe0e542-3a75-49be-846d-7058d1999140#post","sources":"https://maritime-executive.com/article/salvage-tug-reported-attacked-near-straits-of-hormuz-with-crew-feared-dead","GlobalID":"02d45786-0424-4e4a-8bf0-d4e1aa997d74","CreationDa":"2026-07-27T00:00:00.000Z","Creator":"nkramer_understandingwar","EditDate":"2026-07-27T00:00:00.000Z","Editor":"nkramer_understandingwar"}},{"type":"Feature","geometry":{"type":"Point","coordinates":[49.76819784,27.143306440000007]},"properties":{"event_id":19,"data_org":"Green","date":"2026-03-07T00:00:00.000Z","reprt_time":"","vesselname":"Louise P","IMO":"","MMSI":"","flag":"Marshall Islands","location":"Off Coast of Jubayl","latitude":27.14330644,"longitude":49.76819784,"coord_type":"","source_1":"https://x.com/UK_MTO/status/2030305425548046702","source_2":"https://www.middleeasteye.net/live-blog/live-blog-update/irgc-says-it-attacked-marshall-islands-flagged-oil-tanker","sources":"","GlobalID":"cc1060a3-3614-4b53-9d68-38bde558cd0f","CreationDa":"2026-07-27T00:00:00.000Z","Creator":"nkramer_understandingwar","EditDate":"2026-07-27T00:00:00.000Z","Editor":"nkramer_understandingwar"}},{"type":"Feature","geometry":{"type":"Point","coordinates":[56.484327050000005,26.549388880000002]},"properties":{"event_id":20,"data_org":"Green","date":"2026-03-11T00:00:00.000Z","reprt_time":"04:35:00","vesselname":"Mayuree Naree","IMO":"","MMSI":"","flag":"Thailand","location":"11NM north of Oman","latitude":26.54938888,"longitude":56.48432705,"coord_type":"","source_1":"https://www.bbc.com/news/live/cd70wzw9vqlt?post=asset%3A4a26653e-eb92-4a2b-ac13-814e5b9219a2#post","source_2":"https://x.com/UK_MTO/status/2031647016489492825/photo/1","sources":"https://www.reuters.com/world/asia-pacific/how-many-ships-have-been-attacked-gulf-since-start-iran-war-2026-03-11/","GlobalID":"13a3a891-3b5f-4d5f-ad0c-a63aadcea92f","CreationDa":"2026-07-27T00:00:00.000Z","Creator":"nkramer_understandingwar","EditDate":"2026-07-27T00:00:00.000Z","Editor":"nkramer_understandingwar"}},{"type":"Feature","geometry":{"type":"Point","coordinates":[55.49696781,25.909661380000003]},"properties":{"event_id":21,"data_org":"Green","date":"2026-03-11T00:00:00.000Z","reprt_time":"01:58:00","vesselname":"One Majesty","IMO":"","MMSI":"","flag":"Japan","location":"25NM NW of Ras Khaimah","latitude":25.90966138,"longitude":55.49696781,"coord_type":"exact","source_1":"https://x.com/UK_MTO/status/2031571352906272907/photo/1","source_2":"https://www.bbc.com/news/live/cd70wzw9vqlt?post=asset%3A7f97f1f3-ec00-48c6-8167-ca75b207ada3#post","sources":"https://www.reuters.com/world/asia-pacific/how-many-ships-have-been-attacked-gulf-since-start-iran-war-2026-03-11/","GlobalID":"aad9ec30-becd-4a0c-b061-3eabaaae6758","CreationDa":"2026-07-27T00:00:00.000Z","Creator":"nkramer_understandingwar","EditDate":"2026-07-27T00:00:00.000Z","Editor":"nkramer_understandingwar"}},{"type":"Feature","geometry":{"type":"Point","coordinates":[55.09892386,25.95771927]},"properties":{"event_id":22,"data_org":"Green","date":"2026-03-11T00:00:00.000Z","reprt_time":"02:05:00","vesselname":"Star Gwyneth","IMO":"","MMSI":"","flag":"Marshall Islands","location":"57NM off Dubai","latitude":25.95771927,"longitude":55.09892386,"coord_type":"general neighborhood","source_1":"https://www.bbc.com/news/live/cd70wzw9vqlt?post=asset%3A4a26653e-eb92-4a2b-ac13-814e5b9219a2#post","source_2":"","sources":"https://www.reuters.com/world/asia-pacific/how-many-ships-have-been-attacked-gulf-since-start-iran-war-2026-03-11/","GlobalID":"bae2a7c6-f7f7-4cdc-97a7-40e8cc4b08b1","CreationDa":"2026-07-27T00:00:00.000Z","Creator":"nkramer_understandingwar","EditDate":"2026-07-27T00:00:00.000Z","Editor":"nkramer_understandingwar"}},{"type":"Feature","geometry":{"type":"Point","coordinates":[54.9681349339054,25.288962264545]},"properties":{"event_id":26,"data_org":"Green","date":"2026-03-11T00:00:00.000Z","reprt_time":"23:31:00","vesselname":"Source Blessing","IMO":"","MMSI":"","flag":"UNK","location":"35NM north of Jebel Ali, UAE","latitude":25.2889622645,"longitude":54.9681349339,"coord_type":"exact","source_1":"https://x.com/UK_MTO/status/2031936127871938574/photo/1","source_2":"https://www.ukmto.org/-/media/ukmto/products/update-012---jmic-advisory-note-12_mar_2026_final.pdf?rev=1c4c140d79ae41598ae78e6c14858729","sources":"https://www.marinetraffic.com/en/ais/details/ships/shipid:437989/mmsi:636020939/imo:9243198/vessel:SOURCE%20BLESSING","GlobalID":"7872f241-e5b3-423c-9976-a340fb190c9a","CreationDa":"2026-07-27T00:00:00.000Z","Creator":"nkramer_understandingwar","EditDate":"2026-07-27T00:00:00.000Z","Editor":"nkramer_understandingwar"}},{"type":"Feature","geometry":{"type":"Point","coordinates":[48.80416241349341,29.5907722903791]},"properties":{"event_id":27,"data_org":"Green","date":"2026-03-12T00:00:00.000Z","reprt_time":"04:57:00","vesselname":"Zefyros","IMO":"","MMSI":"","flag":"Malta-flagged","location":"Iraqi territorial waters near Umm Qasr","latitude":29.5907722904,"longitude":48.8041624135,"coord_type":"exact","source_1":"https://x.com/MarineTraffic/status/2032018191069679993?s=20","source_2":"","sources":"","GlobalID":"0ed09eaf-da9e-4ea7-aae3-042a907bb856","CreationDa":"2026-07-27T00:00:00.000Z","Creator":"nkramer_understandingwar","EditDate":"2026-07-27T00:00:00.000Z","Editor":"nkramer_understandingwar"}},{"type":"Feature","geometry":{"type":"Point","coordinates":[48.8038678098254,29.589899975052]},"properties":{"event_id":28,"data_org":"Green","date":"2026-03-12T00:00:00.000Z","reprt_time":"06:04:00","vesselname":"Safesea Vishnu","IMO":"","MMSI":"","flag":"MARSHALL ISLANDS","location":"Northern Persian Gulf","latitude":29.5898999751,"longitude":48.8038678098,"coord_type":"exact","source_1":"https://x.com/clashreport/status/2032037435425624529?s=20","source_2":"https://x.com/MarineTraffic/status/2032018191069679993?s=20","sources":"https://x.com/UK_MTO/status/2031887648730517834/photo/1; https://x.com/mercoglianos/status/2031881472148156906; https://x.com/UK_MTO/status/2031928283114139709?s=20","GlobalID":"c2cd3ba6-30d9-43e4-ad0f-0e842d6b8431","CreationDa":"2026-07-27T00:00:00.000Z","Creator":"nkramer_understandingwar","EditDate":"2026-07-27T00:00:00.000Z","Editor":"nkramer_understandingwar"}},{"type":"Feature","geometry":{"type":"Point","coordinates":[54.87423,25.51130999999999]},"properties":{"event_id":35,"data_org":"Green","date":"2026-03-30T00:00:00.000Z","reprt_time":"17:44:00","vesselname":"Al Salmi","IMO":"9534793","MMSI":"447097000","flag":"Kuwait","location":"31 NM NW of Dubai, UAE","latitude":25.51131,"longitude":54.87423,"coord_type":"exact","source_1":"https://x.com/UK_MTO/status/2038734163688181923?s=20","source_2":"https://x.com/UK_MTO/status/2038889731782479992?s=20","sources":"https://x.com/ariel_oseran/status/2038755918116986938?s=20; https://x.com/ariel_oseran/status/2038762119257088108?s=20; https://t.me/sepah_pasdaran/190457","GlobalID":"1393348e-519a-49fa-a967-91809703f2d9","CreationDa":"2026-07-27T00:00:00.000Z","Creator":"nkramer_understandingwar","EditDate":"2026-07-27T00:00:00.000Z","Editor":"nkramer_understandingwar"}},{"type":"Feature","geometry":{"type":"Point","coordinates":[51.574540000000006,26.206220000000002]},"properties":{"event_id":36,"data_org":"Green","date":"2026-03-31T00:00:00.000Z","reprt_time":"20:33:00","vesselname":"Aqua 1","IMO":"9573660","MMSI":"352004089","flag":"Panama","location":"17 NM N of Ras Laffan, Qatar","latitude":26.20622,"longitude":51.57454,"coord_type":"exact","source_1":"https://x.com/UK_MTO/status/2039139096925237520?s=20","source_2":"https://x.com/UK_MTO/status/2039193541881008505?s=20","sources":"https://www.reuters.com/world/middle-east/tanker-hit-by-two-projectiles-off-qatar-one-unexploded-ukmto-says-2026-04-01/; https://x.com/no_itsmyturn/status/2039319332337955192","GlobalID":"0e9146d4-8acf-4e85-9db7-5801bcb2eed1","CreationDa":"2026-07-27T00:00:00.000Z","Creator":"nkramer_understandingwar","EditDate":"2026-07-27T00:00:00.000Z","Editor":"nkramer_understandingwar"}},{"type":"Feature","geometry":{"type":"Point","coordinates":[56.5262,26.717500000000005]},"properties":{"event_id":42,"data_org":"Green","date":"2026-04-18T00:00:00.000Z","reprt_time":"06:17:00","vesselname":"Jag Arnav","IMO":"9705354","MMSI":"419000984","flag":"India","location":"E of Larak island","latitude":26.7175,"longitude":56.5262,"coord_type":"","source_1":"https://x.com/TankerTrackers/status/2045446586340086080?s=20","source_2":"https://www.bbc.com/news/live/cqxdg17yr2wt?post=asset%3A4a8eb767-b681-4a04-8686-6ede1993c096#post","sources":"","GlobalID":"611cbe5a-1fae-4173-84ae-6d003f09fbac","CreationDa":"2026-07-27T00:00:00.000Z","Creator":"nkramer_understandingwar","EditDate":"2026-07-27T00:00:00.000Z","Editor":"nkramer_understandingwar"}},{"type":"Feature","geometry":{"type":"Point","coordinates":[56.6487,26.6741]},"properties":{"event_id":43,"data_org":"Green","date":"2026-04-18T00:00:00.000Z","reprt_time":"06:17:00","vesselname":"Sanmar Herald","IMO":"9330563","MMSI":"419002042","flag":"India","location":"E of Larak island","latitude":26.6741,"longitude":56.6487,"coord_type":"","source_1":"https://x.com/TankerTrackers/status/2045446586340086080?s=20","source_2":"https://www.bbc.com/news/live/cqxdg17yr2wt?post=asset%3A4a8eb767-b681-4a04-8686-6ede1993c096#post","sources":"https://www.reuters.com/world/india/indian-ship-attacked-while-crossing-strait-hormuz-indian-govt-source-says-2026-04-18/","GlobalID":"13542311-a019-43cb-86b7-fd677d0fa53b","CreationDa":"2026-07-27T00:00:00.000Z","Creator":"nkramer_understandingwar","EditDate":"2026-07-27T00:00:00.000Z","Editor":"nkramer_understandingwar"}},{"type":"Feature","geometry":{"type":"Point","coordinates":[55.80333333333329,26.018333333333295]},"properties":{"event_id":55,"data_org":"Green","date":"2026-05-04T00:00:00.000Z","reprt_time":"11:39:00","vesselname":"JV Innovation","IMO":"9276688","MMSI":"538011950","flag":"Marshall Islands","location":"14NM west of Mina Saqr, UAE","latitude":26.0183333333,"longitude":55.8033333333,"coord_type":"","source_1":"https://x.com/UK_MTO/status/2051325943935827997?s=20","source_2":"https://www.wsj.com/world/middle-east/project-freedom-trump-iran-persian-gulf-ff02c827?mod=middle-east_news_article_pos1","sources":"","GlobalID":"b077689b-a449-4ebc-9e2f-d620c3f33438","CreationDa":"2026-07-27T00:00:00.000Z","Creator":"nkramer_understandingwar","EditDate":"2026-07-27T00:00:00.000Z","Editor":"nkramer_understandingwar"}},{"type":"Feature","geometry":{"type":"Point","coordinates":[48.68172788386679,29.623974742231102]},"properties":{"event_id":63,"data_org":"Green","date":"2026-06-01T00:00:00.000Z","reprt_time":"10:23:00","vesselname":"UNK","IMO":"","MMSI":"","flag":"","location":"40 NM southeast of Umm Qasr, Iraq","latitude":29.6239747422,"longitude":48.6817278839,"coord_type":"exact","source_1":"https://x.com/UK_MTO/status/2061453567907549225","source_2":"","sources":"","GlobalID":"9ea3a4f2-6f75-464a-984a-2445cb6e4156","CreationDa":"2026-07-27T00:00:00.000Z","Creator":"nkramer_understandingwar","EditDate":"2026-07-27T00:00:00.000Z","Editor":"nkramer_understandingwar"}},{"type":"Feature","geometry":{"type":"Point","coordinates":[56.572659164780404,26.26531524027749]},"properties":{"event_id":68,"data_org":"Green","date":"2026-06-25T00:00:00.000Z","reprt_time":"10:10:00","vesselname":"EVER LOVELY","IMO":"","MMSI":"","flag":"Singapore","location":"8 NM southeast of Dahit, Musandam Province, Oman","latitude":26.2653152403,"longitude":56.5726591648,"coord_type":"general neighborhood","source_1":"https://x.com/UK_MTO/status/2070160682264269241?s=20","source_2":"https://x.com/_MartinKelly_/status/2070170420800639404?s=20","sources":"https://www.wsj.com/world/middle-east/iran-attacks-cargo-ship-testing-trumps-deal-to-reopen-strait-d3cf454c","GlobalID":"c55409cf-98a5-44b2-8f7b-cb9af5d13bbb","CreationDa":"2026-07-27T00:00:00.000Z","Creator":"nkramer_understandingwar","EditDate":"2026-07-27T00:00:00.000Z","Editor":"nkramer_understandingwar"}},{"type":"Feature","geometry":{"type":"Point","coordinates":[56.2033081486852,26.3977118345328]},"properties":{"event_id":69,"data_org":"Green","date":"2026-06-27T00:00:00.000Z","reprt_time":"05:39:00","vesselname":"M/T Kiku","IMO":"9329796","MMSI":"352002628","flag":"Panama","location":"","latitude":26.3977118345,"longitude":56.2033081487,"coord_type":"general neighborhood","source_1":"https://x.com/UK_MTO/status/2070804115509190704","source_2":"https://x.com/CENTCOM/status/2070987021930102919","sources":"","GlobalID":"622142ce-8665-4edf-b95c-ca2b9eeb89b9","CreationDa":"2026-07-27T00:00:00.000Z","Creator":"nkramer_understandingwar","EditDate":"2026-07-27T00:00:00.000Z","Editor":"nkramer_understandingwar"}},{"type":"Feature","geometry":{"type":"Point","coordinates":[56.4591979955294,25.94105686701589]},"properties":{"event_id":71,"data_org":"Green","date":"2026-07-06T00:00:00.000Z","reprt_time":"17:19:00","vesselname":"Al Rekayyat","IMO":"9397339","MMSI":"538003347","flag":"Qatar","location":"8 NM East of Limah, Oman","latitude":25.941056867,"longitude":56.4591979955,"coord_type":"general neighborhood","source_1":"https://x.com/UK_MTO/status/2074271485275812027","source_2":"https://www.reuters.com/world/middle-east/iran-fires-missiles-commercial-ships-strait-hormuz-axios-reports-2026-07-07/","sources":"https://www.ukmto.org/-/media/ukmto/products/update-068-jmic-advisory-note-07-july.pdf?rev=274817fc31674a1296b6ea6b3dd6ac7d","GlobalID":"c586b860-e3a7-41d2-afb3-78b71491c01b","CreationDa":"2026-07-27T00:00:00.000Z","Creator":"nkramer_understandingwar","EditDate":"2026-07-27T00:00:00.000Z","Editor":"nkramer_understandingwar"}},{"type":"Feature","geometry":{"type":"Point","coordinates":[56.4176622374418,26.269360707631694]},"properties":{"event_id":72,"data_org":"Green","date":"2026-07-06T00:00:00.000Z","reprt_time":"09:05:00","vesselname":"Wedyan","IMO":"9524970","MMSI":"403499000","flag":"Saudi","location":"6 nm off Musandam\nPeninsula, Oman","latitude":26.2693607076,"longitude":56.4176622374,"coord_type":"general neighborhood","source_1":"https://x.com/UK_MTO/status/2074492705451733369","source_2":"https://www.haaretz dot com/israel-news/israel-security/2026-07-07/ty-article-live/.highlight/iran-fires-missiles-at-commercial-ships-in-strait-of-hormuz-axios-reports/0000019f-3a46-d6c0-a9df-ffdfc32e0000?liveBlogItemId=2061757731#2061757731000","sources":"https://www.reuters.com/world/middle-east/saudi-flagged-crude-oil-tanker-damaged-near-hormuz-after-lng-tanker-hit-sources-2026-07-07/","GlobalID":"707915c9-d660-476a-ba19-7e918e9ed389","CreationDa":"2026-07-27T00:00:00.000Z","Creator":"nkramer_understandingwar","EditDate":"2026-07-27T00:00:00.000Z","Editor":"nkramer_understandingwar"}},{"type":"Feature","geometry":{"type":"Point","coordinates":[56.614328386313595,26.3216706781265]},"properties":{"event_id":75,"data_org":"Green","date":"2026-07-11T00:00:00.000Z","reprt_time":"22:40:00","vesselname":"GFS Galaxy","IMO":"9401271","MMSI":"210154000","flag":"Cyprus","location":"9NM east of Oman","latitude":26.3216706781,"longitude":56.6143283863,"coord_type":"general neighborhood","source_1":"https://x.com/UK_MTO/status/2076164855959101508?s=20","source_2":"https://x.com/sentdefender/status/2076122218799436203?s=20","sources":"https://www.reuters.com/world/asia-pacific/iran-declares-strait-hormuz-closed-unauthorised-vessel-hit-2026-07-11/; https://x.com/tom_bike/status/2076287123313795253","GlobalID":"fe1ab141-d8b0-4c90-971b-8ac368a82e09","CreationDa":"2026-07-27T00:00:00.000Z","Creator":"nkramer_understandingwar","EditDate":"2026-07-27T00:00:00.000Z","Editor":"nkramer_understandingwar"}},{"type":"Feature","geometry":{"type":"Point","coordinates":[59.946709715469,23.083446055260804]},"properties":{"event_id":74,"data_org":"Green","date":"2026-07-13T00:00:00.000Z","reprt_time":"17:04:00","vesselname":"UNK","IMO":"","MMSI":"","flag":"","location":"40 NM northeast of Qalhat, Oman","latitude":23.0834460553,"longitude":59.9467097155,"coord_type":"general neighborhood","source_1":"https://x.com/UK_MTO/status/2076794860711874741?s=20","source_2":"","sources":"","GlobalID":"e7020f86-be79-49f8-81ac-6d71715a0853","CreationDa":"2026-07-27T00:00:00.000Z","Creator":"nkramer_understandingwar","EditDate":"2026-07-27T00:00:00.000Z","Editor":"nkramer_understandingwar"}},{"type":"Feature","geometry":{"type":"Point","coordinates":[56.6059656805889,25.821655319707908]},"properties":{"event_id":76,"data_org":"Green","date":"2026-07-13T00:00:00.000Z","reprt_time":"TBC","vesselname":"Mombasa","IMO":"","MMSI":"","flag":"","location":"13 NM southeast of Limah, Oman","latitude":25.8216553197,"longitude":56.6059656806,"coord_type":"general neighborhood","source_1":"https://x.com/UK_MTO/status/2076931405922136545?s=20","source_2":"https://x.com/UK_MTO/status/2076934679874118007?s=20","sources":"https://x.com/UK_MTO/status/2077044851648971182?s=20","GlobalID":"27221f1b-bbe6-4358-a39c-4b75314a8ce5","CreationDa":"2026-07-27T00:00:00.000Z","Creator":"nkramer_understandingwar","EditDate":"2026-07-27T00:00:00.000Z","Editor":"nkramer_understandingwar"}},{"type":"Feature","geometry":{"type":"Point","coordinates":[56.6059656805889,25.821655319707908]},"properties":{"event_id":80,"data_org":"Green","date":"2026-07-13T00:00:00.000Z","reprt_time":"TBC","vesselname":"Al Baniyah","IMO":"","MMSI":"","flag":"","location":"13 NM southeast of Limah, Oman","latitude":25.8216553197,"longitude":56.6059656806,"coord_type":"general neighborhood","source_1":"https://x.com/UK_MTO/status/2076931405922136545?s=20","source_2":"https://x.com/UK_MTO/status/2076934679874118007?s=20","sources":"https://x.com/UK_MTO/status/2077044851648971182?s=20","GlobalID":"5cac7ec0-3a8f-47ae-b1c1-b9d5e6a8a945","CreationDa":"2026-07-27T00:00:00.000Z","Creator":"nkramer_understandingwar","EditDate":"2026-07-27T00:00:00.000Z","Editor":"nkramer_understandingwar"}},{"type":"Feature","geometry":{"type":"Point","coordinates":[56.72565193878929,26.234788587926204]},"properties":{"event_id":81,"data_org":"Green","date":"2026-07-17T00:00:00.000Z","reprt_time":"04:58:00","vesselname":"UNK","IMO":"","MMSI":"","flag":"","location":"19 NM east of Khasab, Oman","latitude":26.2347885879,"longitude":56.7256519388,"coord_type":"general neighborhood","source_1":"https://x.com/UK_MTO/status/2078041630888579547","source_2":"","sources":"","GlobalID":"9cdf778f-9529-43b7-acdf-5b9763aafdbd","CreationDa":"2026-07-27T00:00:00.000Z","Creator":"nkramer_understandingwar","EditDate":"2026-07-27T00:00:00.000Z","Editor":"nkramer_understandingwar"}},{"type":"Feature","geometry":{"type":"Point","coordinates":[56.3836,26.518469999999997]},"properties":{"event_id":86,"data_org":"Green","date":"2026-07-19T00:00:00.000Z","reprt_time":"06:53:00","vesselname":"KAVOMALEAS","IMO":"1042823","MMSI":"249525000","flag":"","location":"","latitude":26.51847,"longitude":56.3836,"coord_type":"exact","source_1":"https://t.me/iliaen/4598","source_2":"https://x.com/andynovy/status/2079199088948429274?s=20","sources":"https://x.com/andynovy/status/2079199132938293609?s=20 ; https://x.com/UK_MTO/status/2079257683094393199?s=20; https://t.me/BenTzionM/8057?single","GlobalID":"f27f134d-527b-41e6-bdb3-37c073b91b02","CreationDa":"2026-07-27T00:00:00.000Z","Creator":"nkramer_understandingwar","EditDate":"2026-07-27T00:00:00.000Z","Editor":"nkramer_understandingwar"}},{"type":"Feature","geometry":{"type":"Point","coordinates":[56.60294,25.631649999999993]},"properties":{"event_id":87,"data_org":"Green","date":"2026-07-20T00:00:00.000Z","reprt_time":"12:52:00","vesselname":"UNK","IMO":"","MMSI":"","flag":"","location":"17 NM east of Dibba","latitude":25.63165,"longitude":56.60294,"coord_type":"general neighborhood","source_1":"https://x.com/arabnews/status/2079246045289005093","source_2":"https://x.com/hey_itsmyturn/status/2079245540261347409","sources":"","GlobalID":"2f431833-cc29-4ea5-a837-fb62e1369b63","CreationDa":"2026-07-27T00:00:00.000Z","Creator":"nkramer_understandingwar","EditDate":"2026-07-27T00:00:00.000Z","Editor":"nkramer_understandingwar"}},{"type":"Feature","geometry":{"type":"Point","coordinates":[56.53600835397161,26.016706564724203]},"properties":{"event_id":89,"data_org":"Green","date":"2026-07-20T00:00:00.000Z","reprt_time":"16:10:00","vesselname":"UNK","IMO":"","MMSI":"","flag":"","location":"8NM NE of Limah, Oman","latitude":26.0167065647,"longitude":56.536008354,"coord_type":"general neighborhood","source_1":"","source_2":"https://x.com/UK_MTO/status/2079378096906498509","sources":"","GlobalID":"84a90080-d76e-41d5-921c-a7db8a7875dc","CreationDa":"2026-07-27T00:00:00.000Z","Creator":"nkramer_understandingwar","EditDate":"2026-07-27T00:00:00.000Z","Editor":"nkramer_understandingwar"}}],"fileName":"Iran Strikes against Civilian Vessels Evening of July 31, 2026"}