{"type":"FeatureCollection","features":[{"type":"Feature","geometry":{"type":"Point","coordinates":[45.28018999979627,31.31886999968512]},"properties":{"event_id":8,"data_org":"Green","post_date":"2026-03-01T00:00:00.000Z","pub_date":"2026-03-01T00:00:00.000Z","strikedate":"2026-03-01T00:00:00.000Z","time":"1900-01-01T00:00:00.000Z","event_type":"Reported Airstrike","actor":"UNK","subject":"","site_type":"military","siteStype":"","city":"Samawah","province":"Muthanna","country":"Iraq","latitude":31.31887,"longitude":45.28019,"source_1":"https://x.com/BaxtiyarGoran/status/2028241450039664819","source_2":"DNGTS: https://www.shafaq dot com/ar/%D8%A3%D9%85%D9%80%D9%86/%D9%85%D8%B5%D8%AF%D8%B1-%D9%82%D8%B5%D9%81-%D8%A7%D9%84%D9%85%D8%AB%D9%86%D9%89-%D9%88%D8%AF%D9%89-%D8%A8%D8%AD%D9%8A%D8%A7%D8%A9-%D8%B9%D9%86%D8%B5%D8%B1-%D8%A8%D8%A7%D9%84%D8%AD%D8%B4%D8%AF","sources":"#REF!"}},{"type":"Feature","geometry":{"type":"Point","coordinates":[44.2424000002486,32.91066999981136]},"properties":{"event_id":9,"data_org":"Green","post_date":"2026-03-02T00:00:00.000Z","pub_date":"2026-03-02T00:00:00.000Z","strikedate":"2026-03-02T00:00:00.000Z","time":"1900-01-01T00:00:00.000Z","event_type":"Reported Airstrike","actor":"UNK","subject":"","site_type":"military","siteStype":"","city":"Jurf Sakhar","province":"Babylon","country":"Iraq","latitude":32.91067,"longitude":44.2424,"source_1":"DNGTS: https://www.shafaq dot com/ar/%D8%A3%D9%85%D9%80%D9%86/%D8%B5%D8%A7%D8%A8%D8%A7%D8%AA-%D8%A8%D9%803-%D8%B6%D8%B1%D8%A8%D8%A7%D8%AA-%D8%A7%D8%B3%D8%AA%D9%87%D8%AF%D9%81%D8%AA-%D9%85%D9%82%D8%B1%D8%A7-%D9%84%D9%83%D8%AA%D8%A7-%D8%A8-%D8%AD%D8%B2%D8%","source_2":"DNGTS: https://www.shafaq dot com/ar/????/?????-??????-????-????-?-????-???????-????????-???-?????-?????","sources":"#REF!"}},{"type":"Feature","geometry":{"type":"Point","coordinates":[43.12069999955522,36.4907099998692]},"properties":{"event_id":11,"data_org":"Green","post_date":"2026-03-02T00:00:00.000Z","pub_date":"2026-03-02T00:00:00.000Z","strikedate":"2026-03-02T00:00:00.000Z","time":"1900-01-01T00:00:00.000Z","event_type":"Reported Airstrike","actor":"UNK","subject":"","site_type":"military","siteStype":"","city":"Tel Keif","province":"Nineveh","country":"Iraq","latitude":36.49071,"longitude":43.1207,"source_1":"DNGTS: https://www.shafaq dot com/ar/%D8%A3%D9%85%D9%80%D9%86/%D8%B7%D8%A7-%D8%B1%D8%A9-%D9%85%D8%B3%D9%8A-%D8%B1%D8%A9-%D8%AA%D8%B3%D8%AA%D9%87%D8%AF%D9%81-%D9%86%D9%82%D8%B7%D8%A9-%D9%84%D9%84%D8%AD%D8%B4%D8%AF-%D8%A7%D9%84%D8%B4%D8%B9%D8%A8%D9%8A-%D8%","source_2":"","sources":"#REF!"}},{"type":"Feature","geometry":{"type":"Point","coordinates":[43.388900000177244,36.401710000255825]},"properties":{"event_id":12,"data_org":"Green","post_date":"2026-03-02T00:00:00.000Z","pub_date":"2026-03-02T00:00:00.000Z","strikedate":"2026-03-02T00:00:00.000Z","time":"1900-01-01T00:00:00.000Z","event_type":"Reported Airstrike","actor":"UNK","subject":"","site_type":"military","siteStype":"","city":"Bartella","province":"Nineveh","country":"Iraq","latitude":36.40171,"longitude":43.3889,"source_1":"DNGTS: https://www.shafaq dot com/ar/????/???-??????-???-???-??-?????-??????-????-?????","source_2":"","sources":"#REF!"}},{"type":"Feature","geometry":{"type":"Point","coordinates":[45.326699999645406,31.271019999995573]},"properties":{"event_id":17,"data_org":"Green","post_date":"2026-03-03T00:00:00.000Z","pub_date":"2026-03-04T00:00:00.000Z","strikedate":"2026-03-03T00:00:00.000Z","time":"1900-01-01T00:00:00.000Z","event_type":"Reported Airstrike","actor":"UNK","subject":"","site_type":"military","siteStype":"","city":"Samawah","province":"Muthanna","country":"Iraq","latitude":31.27102,"longitude":45.3267,"source_1":"https://x.com/FaytuksNetwork/status/2028976819630678065","source_2":"DNGTS: https://www.shafaq dot com/ar/????/???-????-????-?????-?-??-?????-???-????","sources":"#REF!"}},{"type":"Feature","geometry":{"type":"Point","coordinates":[43.112000000183166,35.8509300000879]},"properties":{"event_id":26,"data_org":"Green","post_date":"2026-03-06T00:00:00.000Z","pub_date":"2026-03-06T00:00:00.000Z","strikedate":"2026-03-06T00:00:00.000Z","time":"1900-01-01T00:00:00.000Z","event_type":"Reported Airstrike","actor":"UNK","subject":"","site_type":"military","siteStype":"","city":"Mosul","province":"Nineveh","country":"Iraq","latitude":35.85093,"longitude":43.112,"source_1":"DNGTS: https://shafaq dot com/ar/%D8%A3%D9%85%D9%80%D9%86/%D9%82%D8%B5%D9%81-%D8%AC%D9%88%D9%8A-%D9%84%D9%85%D9%82%D8%B1-%D9%83%D8%AA%D8%A7-%D8%A8-%D8%A7%D9%84-%D9%85%D8%A7%D9%85-%D8%B9%D9%84%D9%8A-%D8%AC%D9%86%D9%88%D8%A8%D9%8A-%D8%A7%D9%84%D9%85%D9%88%","source_2":"https://x.com/obretix/status/2030234071930995102","sources":"#REF!"}},{"type":"Feature","geometry":{"type":"Point","coordinates":[43.088800000061035,36.412190000074474]},"properties":{"event_id":27,"data_org":"Green","post_date":"2026-03-06T00:00:00.000Z","pub_date":"2026-03-06T00:00:00.000Z","strikedate":"2026-03-06T00:00:00.000Z","time":"1900-01-01T00:00:00.000Z","event_type":"Reported Airstrike","actor":"US","subject":"","site_type":"unknown","siteStype":"","city":"Mosul","province":"Nineveh","country":"Iraq","latitude":36.41219,"longitude":43.0888,"source_1":"DNGTS: https://shafaq dot com/ar/%D8%A3%D9%85%D9%80%D9%86/%D9%82%D8%B5%D9%81-%D8%AC%D9%88%D9%8A-%D9%8A%D8%B3%D8%AA%D9%87%D8%AF%D9%81-%D9%85%D9%82%D8%B1%D8%A7-%D9%84%D9%84%D8%AD%D8%B4%D8%AF-%D8%A7%D9%84%D8%B4%D8%B9%D8%A8%D9%8A-%D8%B4%D9%85%D8%A7%D9%84%D9%","source_2":"","sources":"#REF!"}},{"type":"Feature","geometry":{"type":"Point","coordinates":[43.28900000044897,35.78982000021231]},"properties":{"event_id":33,"data_org":"Green","post_date":"2026-03-07T00:00:00.000Z","pub_date":"2026-03-07T00:00:00.000Z","strikedate":"2026-03-07T00:00:00.000Z","time":"1900-01-01T00:00:00.000Z","event_type":"Reported Airstrike","actor":"UNK","subject":"","site_type":"","siteStype":"","city":"Mosul","province":"Nineveh","country":"Iraq","latitude":35.78982,"longitude":43.289,"source_1":"DNGTS: https://www.shafaq dot com/ar/%D8%A3%D9%85%D9%80%D9%86/%D8%B6%D8%B1%D8%A8%D8%A9-%D8%AC%D9%88%D9%8A%D8%A9-%D8%AA%D8%B3%D8%AA%D9%87%D8%AF%D9%81-%D9%85%D9%88%D9%82%D8%B9%D8%A7-%D9%84%D9%80-%D9%83%D8%AA%D8%A7-%D8%A8-%D8%A7%D9%84-%D9%85%D8%A7%D9%85-%D8","source_2":"","sources":"#REF!"}},{"type":"Feature","geometry":{"type":"Point","coordinates":[43.357900000308334,32.731990000019266]},"properties":{"event_id":34,"data_org":"Green","post_date":"2026-03-07T00:00:00.000Z","pub_date":"2026-03-07T00:00:00.000Z","strikedate":"2026-03-07T00:00:00.000Z","time":"1900-01-01T00:00:00.000Z","event_type":"Reported Airstrike","actor":"UNK","subject":"","site_type":"","siteStype":"","city":"","province":"Al Anbar","country":"Iraq","latitude":32.73199,"longitude":43.3579,"source_1":"DNGTS: https://www.shafaq dot com/ar/%D8%A3%D9%85%D9%80%D9%86/%D9%82%D8%B5%D9%81-%D8%AC%D8%AF%D9%8A%D8%AF-%D9%8A%D8%B7%D8%A7%D9%84-%D9%85%D9%82%D8%B1%D8%A7-%D9%84%D9%84%D8%AD%D8%B4%D8%AF-%D8%A7%D9%84%D8%B4%D8%B9%D8%A8%D9%8A-%D9%81%D9%8A-%D8%A7%D9%84%D9%8","source_2":"","sources":"#REF!"}},{"type":"Feature","geometry":{"type":"Point","coordinates":[43.25070000042546,36.15920000014994]},"properties":{"event_id":35,"data_org":"Green","post_date":"2026-03-07T00:00:00.000Z","pub_date":"2026-03-07T00:00:00.000Z","strikedate":"2026-03-07T00:00:00.000Z","time":"1900-01-01T00:00:00.000Z","event_type":"Reported Airstrike","actor":"UNK","subject":"","site_type":"","siteStype":"","city":"","province":"Nineveh","country":"Iraq","latitude":36.1592,"longitude":43.2507,"source_1":"DNGTS: https://www.shafaq dot com/ar/%D8%A3%D9%85%D9%80%D9%86/%D9%82%D8%B5%D9%81-%D8%AC%D8%AF%D9%8A%D8%AF-%D9%8A%D8%B7%D8%A7%D9%84-%D9%85%D9%82%D8%B1%D8%A7-%D9%84%D9%84%D8%AD%D8%B4%D8%AF-%D8%A7%D9%84%D8%B4%D8%B9%D8%A8%D9%8A-%D9%81%D9%8A-%D8%A7%D9%84%D9%8","source_2":"","sources":"#REF!"}},{"type":"Feature","geometry":{"type":"Point","coordinates":[43.25070000042546,36.15920000014994]},"properties":{"event_id":36,"data_org":"Green","post_date":"2026-03-09T00:00:00.000Z","pub_date":"2026-03-09T00:00:00.000Z","strikedate":"2026-03-09T00:00:00.000Z","time":"1900-01-01T00:00:00.000Z","event_type":"Reported Airstrike","actor":"UNK","subject":"","site_type":"","siteStype":"","city":"Bartella","province":"Nineveh","country":"Iraq","latitude":36.1592,"longitude":43.2507,"source_1":"https://x.com/Tammuz_Intel/status/2030976692291023274","source_2":"https://x.com/Tammuz_Intel/status/2030977214020255922","sources":"#REF!"}},{"type":"Feature","geometry":{"type":"Point","coordinates":[39.96790000021128,33.669589999770345]},"properties":{"event_id":37,"data_org":"Green","post_date":"2026-03-09T00:00:00.000Z","pub_date":"2026-03-10T00:00:00.000Z","strikedate":"2026-03-09T00:00:00.000Z","time":"1900-01-01T00:00:00.000Z","event_type":"Reported Airstrike","actor":"UNK","subject":"","site_type":"","siteStype":"","city":"Akashat","province":"Al Anbar","country":"Iraq","latitude":33.66959,"longitude":39.9679,"source_1":"DNGTS: https://shafaq dot com/ar/%D8%A3%D9%85%D9%80%D9%86/%D9%82%D8%B5%D9%81-%D8%AC%D9%88%D9%8A-%D8%AC%D8%AF%D9%8A%D8%AF-%D9%8A%D8%B3%D8%AA%D9%87%D8%AF%D9%81-%D8%A7%D9%84%D8%AD%D8%B4%D8%AF-%D8%A7%D9%84%D8%B4%D8%B9%D8%A8%D9%8A-%D8%BA%D8%B1%D8%A8%D9%8A-%D8","source_2":"","sources":"#REF!"}},{"type":"Feature","geometry":{"type":"Point","coordinates":[44.38529999993994,35.469599999887606]},"properties":{"event_id":38,"data_org":"Green","post_date":"2026-03-10T00:00:00.000Z","pub_date":"2026-03-10T00:00:00.000Z","strikedate":"2026-03-10T00:00:00.000Z","time":"1900-01-01T00:00:00.000Z","event_type":"Reported Airstrike","actor":"UNK","subject":"","site_type":"","siteStype":"","city":"Kirkuk City","province":"Kirkuk","country":"Iraq","latitude":35.4696,"longitude":44.3853,"source_1":"https://x.com/Tammuz_Intel/status/2031298955401642396","source_2":"https://x.com/LizHurra/status/2031304263473725921","sources":"#REF!"}},{"type":"Feature","geometry":{"type":"Point","coordinates":[41.157000000190806,34.327459999791515]},"properties":{"event_id":39,"data_org":"Green","post_date":"2026-03-10T00:00:00.000Z","pub_date":"2026-03-10T00:00:00.000Z","strikedate":"2026-03-10T00:00:00.000Z","time":"1900-01-01T00:00:00.000Z","event_type":"Reported Airstrike","actor":"UNK","subject":"","site_type":"","siteStype":"","city":"al Qaim","province":"Al Anbar","country":"Iraq","latitude":34.32746,"longitude":41.157,"source_1":"DNGTS: https://shafaq dot com/ar/%D8%A3%D9%85%D9%80%D9%86/%D8%A7%D9%84%D8%AB%D8%A7%D9%84%D8%AB-%D8%AE%D9%84%D8%A7%D9%84-%D8%B3%D8%A7%D8%B9%D8%A7%D8%AA-5-%D9%85%D8%B5%D8%A7%D8%A8%D9%8A%D9%86-%D8%A8%D9%82%D8%B5%D9%81-%D8%AC%D9%88%D9%8A-%D8%A7%D8%B3%D8%AA%D","source_2":"","sources":"#REF!"}},{"type":"Feature","geometry":{"type":"Point","coordinates":[41.16407000019162,34.3169300002728]},"properties":{"event_id":41,"data_org":"Green","post_date":"2026-03-11T00:00:00.000Z","pub_date":"2026-03-11T00:00:00.000Z","strikedate":"2026-03-11T00:00:00.000Z","time":"1900-01-01T00:00:00.000Z","event_type":"Reported Airstrike","actor":"UNK","subject":"","site_type":"","siteStype":"","city":"al Qaim","province":"Al Anbar","country":"Iraq","latitude":34.31693,"longitude":41.16407,"source_1":"DNGTS:https://www.shafaq dot com/ar/????/????-?????-????-???-??????-????-?????-??????-??-??-?-??-????","source_2":"","sources":"#REF!"}},{"type":"Feature","geometry":{"type":"Point","coordinates":[44.28748999989043,32.774179999817186]},"properties":{"event_id":42,"data_org":"Green","post_date":"2026-03-11T00:00:00.000Z","pub_date":"2026-03-11T00:00:00.000Z","strikedate":"2026-03-11T00:00:00.000Z","time":"1900-01-01T00:00:00.000Z","event_type":"Reported Airstrike","actor":"UNK","subject":"","site_type":"","siteStype":"","city":"Musayyib","province":"Babylon","country":"Iraq","latitude":32.77418,"longitude":44.28749,"source_1":"DNGTS: https://www.shafaq dot com/ar/????/????-??-??-???-??-??????-????-??????-??-?????-?-?????","source_2":"","sources":"#REF!"}},{"type":"Feature","geometry":{"type":"Point","coordinates":[43.129999999875224,36.340000000068905]},"properties":{"event_id":47,"data_org":"Green","post_date":"2026-03-11T00:00:00.000Z","pub_date":"2026-03-11T00:00:00.000Z","strikedate":"2026-03-11T00:00:00.000Z","time":"1900-01-01T00:00:00.000Z","event_type":"Report of Explosion with Footage","actor":"UNK","subject":"","site_type":"unknown","siteStype":"","city":"Mosul","province":"Nineveh","country":"Iraq","latitude":36.34,"longitude":43.13,"source_1":"https://x.com/Tammuz_Intel/status/2031748427650842766","source_2":"","sources":"#REF!"}},{"type":"Feature","geometry":{"type":"Point","coordinates":[39.96790000021128,33.669589999770345]},"properties":{"event_id":51,"data_org":"Green","post_date":"2026-03-11T00:00:00.000Z","pub_date":"2026-03-12T00:00:00.000Z","strikedate":"2026-03-11T00:00:00.000Z","time":"1900-01-01T00:00:00.000Z","event_type":"Reported Airstrike","actor":"UNK","subject":"","site_type":"military","siteStype":"","city":"al Qaim","province":"Al Anbar","country":"Iraq","latitude":33.66959,"longitude":39.9679,"source_1":"https://x.com/JoeTruzman/status/2031933736108114229","source_2":"https://x.com/JoeTruzman/status/2031939929958502808","sources":"#REF!"}},{"type":"Feature","geometry":{"type":"Point","coordinates":[44.36606800036157,33.209935999909355]},"properties":{"event_id":53,"data_org":"Green","post_date":"2026-03-12T00:00:00.000Z","pub_date":"2026-03-12T00:00:00.000Z","strikedate":"2026-03-12T00:00:00.000Z","time":"1900-01-01T00:00:00.000Z","event_type":"Report of Explosion with Footage","actor":"US","subject":"","site_type":"military","siteStype":"military : base","city":"Baghdad","province":"Baghdad","country":"Iraq","latitude":33.209936,"longitude":44.366068,"source_1":"https://x.com/Tammuz_Intel/status/2032108637632573550","source_2":"DNGTS: https://shafaq dot com/en/Security/One-killed-three-wounded-in-airstrike-on-Baghdad-s-Saqr-Camp","sources":"#REF!"}},{"type":"Feature","geometry":{"type":"Point","coordinates":[44.23639999975237,32.91787999963316]},"properties":{"event_id":54,"data_org":"Green","post_date":"2026-03-12T00:00:00.000Z","pub_date":"2026-03-12T00:00:00.000Z","strikedate":"2026-03-12T00:00:00.000Z","time":"1900-01-01T00:00:00.000Z","event_type":"Reported Airstrike","actor":"UNK","subject":"","site_type":"military","siteStype":"","city":"Jurf Sakhar","province":"Babylon","country":"Iraq","latitude":32.91788,"longitude":44.2364,"source_1":"DNGTS: https://www.shafaq dot com/ar/????/????-????-??????-????-????-?-???-????-?????-????","source_2":"https://x.com/sentdefender/status/2032105231115247882","sources":"#REF!"}},{"type":"Feature","geometry":{"type":"Point","coordinates":[43.58523300030379,35.76797700033407]},"properties":{"event_id":55,"data_org":"Green","post_date":"2026-03-12T00:00:00.000Z","pub_date":"2026-03-13T00:00:00.000Z","strikedate":"2026-03-12T00:00:00.000Z","time":"1900-01-01T00:00:00.000Z","event_type":"Reported Airstrike","actor":"US","subject":"","site_type":"military","siteStype":"military : base","city":"Makhmour","province":"Ninewa","country":"Iraq","latitude":35.767977,"longitude":43.585233,"source_1":"https://x.com/WillUnderhill23/status/2032221576699994436?s=20","source_2":"https://x.com/Archer83Able/status/2032145743130030395?s=20","sources":"#REF!"}},{"type":"Feature","geometry":{"type":"Point","coordinates":[43.78648300010484,33.34462999985754]},"properties":{"event_id":56,"data_org":"Green","post_date":"2026-03-12T00:00:00.000Z","pub_date":"2026-03-13T00:00:00.000Z","strikedate":"2026-03-12T00:00:00.000Z","time":"1900-01-01T00:00:00.000Z","event_type":"Reported Airstrike","actor":"UNK","subject":"","site_type":"military","siteStype":"military : base","city":"Fallujah","province":"Anbar","country":"Iraq","latitude":33.34463,"longitude":43.786483,"source_1":"DNGTS: https://shafaq dot com/ar/%D8%A3%D9%85%D9%80%D9%86/%D9%82%D8%B5%D9%81-%D8%AC%D9%88%D9%8A-%D9%8A%D8%B7%D8%A7%D9%84-%D9%85%D9%82%D8%A7%D8%B1-%D9%84%D9%84%D8%B9%D8%B5%D8%A7-%D8%A8-%D9%88%D8%AD%D8%B2%D8%A8-%D8%A7%D9%84%D9%84%D9%87-%D9%81%D9%8A-%D8%A7%","source_2":"","sources":"#REF!"}},{"type":"Feature","geometry":{"type":"Point","coordinates":[43.71189999994165,34.60030000007715]},"properties":{"event_id":57,"data_org":"Green","post_date":"2026-03-13T00:00:00.000Z","pub_date":"2026-03-13T00:00:00.000Z","strikedate":"2026-03-13T00:00:00.000Z","time":"1900-01-01T00:00:00.000Z","event_type":"Reported Airstrike","actor":"US","subject":"","site_type":"military","siteStype":"military : base","city":"Tikrit","province":"Salah al Din","country":"Iraq","latitude":34.6003,"longitude":43.7119,"source_1":"https://x.com/Osint613/status/2032444410592379231","source_2":"DNGTS: https://shafaq dot com/ar/%D8%A3%D9%85%D9%80%D9%86/%D9%82%D8%B5%D9%81-%D8%AC%D9%88%D9%8A-%D9%8A%D8%B7%D8%A7%D9%84-%D9%85%D9%82%D8%A7%D8%B1-%D9%84%D9%84%D8%B9%D8%B5%D8%A7-%D8%A8-%D9%88%D8%AD%D8%B2%D8%A8-%D8%A7%D9%84%D9%84%D9%87-%D9%81%D9%8A-%D8%A7%","sources":"#REF!"}},{"type":"Feature","geometry":{"type":"Point","coordinates":[44.28404699995154,35.513033999882126]},"properties":{"event_id":58,"data_org":"Green","post_date":"2026-03-13T00:00:00.000Z","pub_date":"2026-03-14T00:00:00.000Z","strikedate":"2026-03-13T00:00:00.000Z","time":"1900-01-01T00:00:00.000Z","event_type":"Reported Airstrike","actor":"UNK","subject":"","site_type":"military","siteStype":"military : base","city":"Kumbatlar","province":"Kirkuk","country":"Iraq","latitude":35.513034,"longitude":44.284047,"source_1":"https://x.com/Tammuz_Intel/status/2032550937802190934","source_2":"https://x.com/Tammuz_Intel/status/2032551799442325979","sources":"#REF!"}},{"type":"Feature","geometry":{"type":"Point","coordinates":[41.16407000019162,34.3169300002728]},"properties":{"event_id":59,"data_org":"Green","post_date":"2026-03-13T00:00:00.000Z","pub_date":"2026-03-14T00:00:00.000Z","strikedate":"2026-03-13T00:00:00.000Z","time":"1900-01-01T00:00:00.000Z","event_type":"Reported Airstrike","actor":"UNK","subject":"","site_type":"military","siteStype":"military : base","city":"al Qaim","province":"Iraq","country":"Iraq","latitude":34.31693,"longitude":41.16407,"source_1":"https://x.com/Tammuz_Intel/status/2032556417165480100","source_2":"DNGTS: https://shafaq dot com/ar/????/????-????-????-????-?????-??????-????-??????","sources":"#REF!"}},{"type":"Feature","geometry":{"type":"Point","coordinates":[43.36049399977726,36.358233000108086]},"properties":{"event_id":60,"data_org":"Green","post_date":"2026-03-13T00:00:00.000Z","pub_date":"2026-03-14T00:00:00.000Z","strikedate":"2026-03-13T00:00:00.000Z","time":"1900-01-01T00:00:00.000Z","event_type":"Report of Explosion with Footage","actor":"UNK","subject":"","site_type":"","siteStype":"military : unknown","city":"Mosul","province":"Nineveh","country":"Iraq","latitude":36.358233,"longitude":43.360494,"source_1":"https://x.com/kimhvik2/status/2032581770810429530?s=20","source_2":"https://x.com/Tammuz_Intel/status/2032583378562588765","sources":"#REF!"}},{"type":"Feature","geometry":{"type":"Point","coordinates":[44.434536000400804,33.295510000121496]},"properties":{"event_id":61,"data_org":"Green","post_date":"2026-03-13T00:00:00.000Z","pub_date":"2026-03-14T00:00:00.000Z","strikedate":"2026-03-13T00:00:00.000Z","time":"1900-01-01T00:00:00.000Z","event_type":"Reported Airstrike","actor":"UNK","subject":"","site_type":"","siteStype":"","city":"Baghdad","province":"Baghdad","country":"Iraq","latitude":33.29551,"longitude":44.434536,"source_1":"DNGTS: https://shafaq dot com/ar/????/?????-?????-?????-????-?-????-12-????-?????-??????-?????-??????-?-????????","source_2":"DNGTS: https://shafaq dot com/ar/????/???-?????-?????-???????-???????-???????-???-???-??-??????-?????-??????","sources":"#REF!"}},{"type":"Feature","geometry":{"type":"Point","coordinates":[44.619834000355766,34.883918999995515]},"properties":{"event_id":66,"data_org":"Green","post_date":"2026-03-14T00:00:00.000Z","pub_date":"2026-03-14T00:00:00.000Z","strikedate":"2026-03-14T00:00:00.000Z","time":"1900-01-01T00:00:00.000Z","event_type":"Reported Airstrike","actor":"UNK","subject":"","site_type":"","siteStype":"military : base","city":"","province":"Salah al Din","country":"Iraq","latitude":34.883919,"longitude":44.619834,"source_1":"DNGTS: https://shafaq dot com/ar/????/???????-????-????-4-?????-?????-??????-??-????-?????","source_2":"DNGTS: https://shafaq dot com/ar/????/???-??-??????-????-?????-??????-???-????-?????","sources":"#REF!"}},{"type":"Feature","geometry":{"type":"Point","coordinates":[44.23639999975237,32.91787999963316]},"properties":{"event_id":68,"data_org":"Green","post_date":"2026-03-15T00:00:00.000Z","pub_date":"2026-03-15T00:00:00.000Z","strikedate":null,"time":"1900-01-01T00:00:00.000Z","event_type":"Confirmed Airstrike","actor":"UNK","subject":"","site_type":"military","siteStype":"military : base","city":"Jurf Sakhar","province":"Babylon","country":"Iraq","latitude":32.91788,"longitude":44.2364,"source_1":"https://x.com/obretix/status/2033234721954582885?s=20","source_2":"https://x.com/obretix/status/2028193573288501306?s=20","sources":"#REF!"}},{"type":"Feature","geometry":{"type":"Point","coordinates":[44.23639999975237,32.91787999963316]},"properties":{"event_id":73,"data_org":"Green","post_date":"2026-03-16T00:00:00.000Z","pub_date":"2026-03-16T00:00:00.000Z","strikedate":"2026-03-16T00:00:00.000Z","time":"1900-01-01T00:00:00.000Z","event_type":"Reported Airstrike","actor":"UNK","subject":"","site_type":"military","siteStype":"military : base","city":"Jurf Sakhar","province":"Babylon","country":"Iraq","latitude":32.91788,"longitude":44.2364,"source_1":"https://x.com/Tammuz_Intel/status/2033456951628062972","source_2":"","sources":"#REF!"}},{"type":"Feature","geometry":{"type":"Point","coordinates":[42.985111999714036,36.46149100028646]},"properties":{"event_id":74,"data_org":"Green","post_date":"2026-03-16T00:00:00.000Z","pub_date":"2026-03-16T00:00:00.000Z","strikedate":"2026-03-16T00:00:00.000Z","time":"1900-01-01T00:00:00.000Z","event_type":"Reported Airstrike","actor":"UNK","subject":"","site_type":"military","siteStype":"military : base","city":"Tall Kayfa","province":"Nineveh","country":"Iraq","latitude":36.461491,"longitude":42.985112,"source_1":"","source_2":"DNGTS: https://www.shafaq.com/en/Security/PMF-members-wounded-in-airstrike-near-Mosul-dam","sources":"#REF!"}},{"type":"Feature","geometry":{"type":"Point","coordinates":[41.16407000019162,34.3169300002728]},"properties":{"event_id":75,"data_org":"Green","post_date":"2026-03-16T00:00:00.000Z","pub_date":"2026-03-16T00:00:00.000Z","strikedate":"2026-03-16T00:00:00.000Z","time":"1900-01-01T00:00:00.000Z","event_type":"Reported Airstrike","actor":"UNK","subject":"","site_type":"military","siteStype":"military : base","city":"al Qaim","province":"Al Anbar","country":"Iraq","latitude":34.31693,"longitude":41.16407,"source_1":"https://x.com/Tammuz_Intel/status/2033540928342757715","source_2":"","sources":"#REF!"}},{"type":"Feature","geometry":{"type":"Point","coordinates":[44.36666699968798,33.933332999986106]},"properties":{"event_id":77,"data_org":"Green","post_date":"2026-03-16T00:00:00.000Z","pub_date":"2026-03-16T00:00:00.000Z","strikedate":"2026-03-16T00:00:00.000Z","time":"1900-01-01T00:00:00.000Z","event_type":"Reported Airstrike","actor":"UNK","subject":"","site_type":"military","siteStype":"military : airbase","city":"","province":"Salah al Din","country":"Iraq","latitude":33.933333,"longitude":44.366667,"source_1":"https://x.com/hey_itsmyturn/status/2033583106297372944","source_2":"","sources":"#REF!"}},{"type":"Feature","geometry":{"type":"Point","coordinates":[44.240070000370295,33.16549999970257]},"properties":{"event_id":78,"data_org":"Green","post_date":"2026-03-16T00:00:00.000Z","pub_date":"2026-03-17T00:00:00.000Z","strikedate":"2026-03-16T00:00:00.000Z","time":"1900-01-01T00:00:00.000Z","event_type":"Reported Airstrike","actor":"UNK","subject":"","site_type":"unknown","siteStype":"","city":"Baghdad","province":"Baghdad","country":"Iraq","latitude":33.1655,"longitude":44.24007,"source_1":"DNGTS: https://www.shafaq dot com/ar/????/???-????-?????-????-???????-????-????????-??????","source_2":"DNGTS: https://www.shafaq dot com/ar/????/???-??-????-?????-????-???????-??????-?????-??-????????-??????","sources":"#REF!"}},{"type":"Feature","geometry":{"type":"Point","coordinates":[44.23639999975237,32.91787999963316]},"properties":{"event_id":80,"data_org":"Green","post_date":"2026-03-17T00:00:00.000Z","pub_date":"2026-03-17T00:00:00.000Z","strikedate":"2026-03-17T00:00:00.000Z","time":"1900-01-01T00:00:00.000Z","event_type":"Reported Airstrike","actor":"UNK","subject":"","site_type":"unknown","siteStype":"","city":"Jurf Sakhr","province":"Babil","country":"Iraq","latitude":32.91788,"longitude":44.2364,"source_1":"DNGTS: https://www.shafaq dot com/ar/????/???-???-??????-???-?????-??-????-6","source_2":"","sources":"#REF!"}},{"type":"Feature","geometry":{"type":"Point","coordinates":[43.51836899969654,33.6333439996581]},"properties":{"event_id":82,"data_org":"Green","post_date":"2026-03-17T00:00:00.000Z","pub_date":"2026-03-17T00:00:00.000Z","strikedate":"2026-03-17T00:00:00.000Z","time":"1900-01-01T00:00:00.000Z","event_type":"Reported Airstrike","actor":"UNK","subject":"","site_type":"military","siteStype":"","city":"Tharthar City","province":"Anbar","country":"Iraq","latitude":33.633344,"longitude":43.518369,"source_1":"DNGTS: https://www.shafaq dot com/ar/????/????-????-??????-????-?????-?????-??-??-??-????","source_2":"","sources":"#REF!"}},{"type":"Feature","geometry":{"type":"Point","coordinates":[44.10544300025376,35.68397700021503]},"properties":{"event_id":83,"data_org":"Green","post_date":"2026-03-17T00:00:00.000Z","pub_date":"2026-03-17T00:00:00.000Z","strikedate":"2026-03-17T00:00:00.000Z","time":"1900-01-01T00:00:00.000Z","event_type":"Reported Airstrike","actor":"UNK","subject":"","site_type":"military","siteStype":"","city":"","province":"Kirkuk","country":"Iraq","latitude":35.683977,"longitude":44.105443,"source_1":"DNGTS: https://www.shafaq dot com/ar/????/??????-???-?-???-??????-?????-?????-??????-????-????-?????-?????","source_2":"","sources":"#REF!"}},{"type":"Feature","geometry":{"type":"Point","coordinates":[44.23985100008717,32.918331999900815]},"properties":{"event_id":84,"data_org":"Green","post_date":"2026-03-17T00:00:00.000Z","pub_date":"2026-03-17T00:00:00.000Z","strikedate":"2026-03-17T00:00:00.000Z","time":"1900-01-01T00:00:00.000Z","event_type":"Reported Airstrike","actor":"UNK","subject":"","site_type":"military","siteStype":"","city":"Jurf Sakhr","province":"Babil","country":"Iraq","latitude":32.918332,"longitude":44.239851,"source_1":"https://x.com/Tammuz_Intel/status/2033945008651305075","source_2":"","sources":"#REF!"}},{"type":"Feature","geometry":{"type":"Point","coordinates":[41.16407000019162,34.3169300002728]},"properties":{"event_id":85,"data_org":"Green","post_date":"2026-03-18T00:00:00.000Z","pub_date":"2026-03-18T00:00:00.000Z","strikedate":"2026-03-18T00:00:00.000Z","time":"1900-01-01T00:00:00.000Z","event_type":"Reported Airstrike","actor":"UNK","subject":"","site_type":"military","siteStype":"","city":"al Qaim","province":"Anbar","country":"Iraq","latitude":34.31693,"longitude":41.16407,"source_1":"https://x.com/Tammuz_Intel/status/2034257904920854698","source_2":"https://x.com/Tammuz_Intel/status/2034270682909999547","sources":"#REF!"}},{"type":"Feature","geometry":{"type":"Point","coordinates":[41.15698699977201,34.32165800000492]},"properties":{"event_id":86,"data_org":"Green","post_date":"2026-03-18T00:00:00.000Z","pub_date":"2026-03-18T00:00:00.000Z","strikedate":"2026-03-18T00:00:00.000Z","time":"1900-01-01T00:00:00.000Z","event_type":"Reported Airstrike","actor":"UNK","subject":"","site_type":"military","siteStype":"","city":"al Qaim","province":"Anbar","country":"Iraq","latitude":34.321658,"longitude":41.156987,"source_1":"DNGTS: https://www.shafaq dot com/ar/????/??-????-???-???-??????-????-?????-?????-?????-??????","source_2":"","sources":"#REF!"}},{"type":"Feature","geometry":{"type":"Point","coordinates":[44.39629499992853,35.219575999756145]},"properties":{"event_id":90,"data_org":"Green","post_date":"2026-03-18T00:00:00.000Z","pub_date":"2026-03-18T00:00:00.000Z","strikedate":"2026-03-18T00:00:00.000Z","time":"1900-01-01T00:00:00.000Z","event_type":"Reported Airstrike","actor":"UNK","subject":"","site_type":"military","siteStype":"","city":"","province":"Kirkuk","country":"Iraq","latitude":35.219576,"longitude":44.396295,"source_1":"DNGTS: https://www.shafaq dot com/ar/????/???-????-??????-????-?????-??????-??-?????","source_2":"","sources":"#REF!"}},{"type":"Feature","geometry":{"type":"Point","coordinates":[43.36128100032295,36.36214700010211]},"properties":{"event_id":91,"data_org":"Green","post_date":"2026-03-19T00:00:00.000Z","pub_date":"2026-03-19T00:00:00.000Z","strikedate":"2026-03-19T00:00:00.000Z","time":"1900-01-01T00:00:00.000Z","event_type":"Reported Airstrike","actor":"UNK","subject":"","site_type":"military","siteStype":"","city":"Khazna Tapa","province":"Ninewa","country":"Iraq","latitude":36.362147,"longitude":43.361281,"source_1":"DNGTS: https://www.shafaq dot com/ar/????/????-?-????-4-???????-??-?????-????-????-?????","source_2":"","sources":"#REF!"}},{"type":"Feature","geometry":{"type":"Point","coordinates":[44.620785000034694,34.881140000052696]},"properties":{"event_id":92,"data_org":"Green","post_date":"2026-03-19T00:00:00.000Z","pub_date":"2026-03-19T00:00:00.000Z","strikedate":"2026-03-19T00:00:00.000Z","time":"1900-01-01T00:00:00.000Z","event_type":"Reported Airstrike","actor":"UNK","subject":"","site_type":"military","siteStype":"","city":"Tuz Khurmatu","province":"Salah al Din","country":"Iraq","latitude":34.88114,"longitude":44.620785,"source_1":"DNGTS: https://www.shafaq dot com/ar/????/???????-???-?????-??????-???????-??????-??-????-?????","source_2":"","sources":"#REF!"}},{"type":"Feature","geometry":{"type":"Point","coordinates":[43.12271999981213,36.38673199980584]},"properties":{"event_id":93,"data_org":"Green","post_date":"2026-03-19T00:00:00.000Z","pub_date":"2026-03-19T00:00:00.000Z","strikedate":"2026-03-19T00:00:00.000Z","time":"1900-01-01T00:00:00.000Z","event_type":"Reported Airstrike","actor":"UNK","subject":"","site_type":"military","siteStype":"military : base","city":"Mosul","province":"Ninewa","country":"Iraq","latitude":36.386732,"longitude":43.12272,"source_1":"DNGTS: https://shafaq.com/ar/%D8%A3%D9%85%D9%80%D9%86/%D9%82%D8%B5%D9%81-%D8%AC%D9%88%D9%8A-%D9%8A%D8%B3%D8%AA%D9%87%D8%AF%D9%81-%D9%85%D9%82%D8%B1-%D8%B9%D9%85%D9%84%D9%8A%D8%A7%D8%AA-%D8%A7%D9%84%D8%AD%D8%B4%D8%AF-%D8%A7%D9%84%D8%B4%D8%B9%D8%A8%D9%8A-%","source_2":"https://x.com/Tammuz_Intel/status/2034642594941084018","sources":"#REF!"}},{"type":"Feature","geometry":{"type":"Point","coordinates":[44.3673360002329,33.715436000189094]},"properties":{"event_id":94,"data_org":"Green","post_date":"2026-03-19T00:00:00.000Z","pub_date":"2026-03-19T00:00:00.000Z","strikedate":"2026-03-20T00:00:00.000Z","time":"1900-01-01T00:00:00.000Z","event_type":"Reported Airstrike","actor":"UNK","subject":"","site_type":"military","siteStype":"","city":"Tarmiya","province":"Baghdad","country":"Iraq","latitude":33.715436,"longitude":44.367336,"source_1":"DNGTS: https://www.shafaq dot com/ar/????/???-???-??????-??????-??-????-?????","source_2":"","sources":"#REF!"}},{"type":"Feature","geometry":{"type":"Point","coordinates":[44.07576300013469,35.25739299979908]},"properties":{"event_id":95,"data_org":"Green","post_date":"2026-03-19T00:00:00.000Z","pub_date":"2026-03-20T00:00:00.000Z","strikedate":"2026-03-19T00:00:00.000Z","time":"1900-01-01T00:00:00.000Z","event_type":"Reported Airstrike","actor":"UNK","subject":"","site_type":"military","siteStype":"","city":"","province":"Salah al Din","country":"Iraq","latitude":35.257393,"longitude":44.075763,"source_1":"DNGTS: https://www.shafaq dot com/ar/????/???-???-??????-?????-???6-??-?????-?????-?????","source_2":"","sources":"#REF!"}},{"type":"Feature","geometry":{"type":"Point","coordinates":[44.619834000355766,34.883918999995515]},"properties":{"event_id":96,"data_org":"Green","post_date":"2026-03-20T00:00:00.000Z","pub_date":"2026-03-21T00:00:00.000Z","strikedate":"2026-03-20T00:00:00.000Z","time":"1900-01-01T00:00:00.000Z","event_type":"Reported Airstrike","actor":"UNK","subject":"","site_type":"military","siteStype":"","city":"Tuz Khurmatu","province":"Salah al Din","country":"Iraq","latitude":34.883919,"longitude":44.619834,"source_1":"DNGTS: https://www.shafaq dot com/ar/????/???-???-??????-????-?????-??????-??-????-?????","source_2":"","sources":"#REF!"}},{"type":"Feature","geometry":{"type":"Point","coordinates":[41.16407000019162,34.3169300002728]},"properties":{"event_id":97,"data_org":"Green","post_date":"2026-03-20T00:00:00.000Z","pub_date":"2026-03-21T00:00:00.000Z","strikedate":"2026-03-20T00:00:00.000Z","time":"1900-01-01T00:00:00.000Z","event_type":"Reported Airstrike","actor":"UNK","subject":"","site_type":"military","siteStype":"","city":"al Qaim","province":"Anbar","country":"Iraq","latitude":34.31693,"longitude":41.16407,"source_1":"https://x.com/Tammuz_Intel/status/2035174698707796343","source_2":"","sources":"#REF!"}},{"type":"Feature","geometry":{"type":"Point","coordinates":[44.62079199970738,34.88097999967166]},"properties":{"event_id":98,"data_org":"Green","post_date":"2026-03-21T00:00:00.000Z","pub_date":"2026-03-21T00:00:00.000Z","strikedate":"2026-03-21T00:00:00.000Z","time":"1900-01-01T00:00:00.000Z","event_type":"Reported Airstrike","actor":"UNK","subject":"","site_type":"military","siteStype":"","city":"Tuz Khurmatu","province":"Salah al Din","country":"Iraq","latitude":34.88098,"longitude":44.620792,"source_1":"DNGTS: https://www.shafaq dot com/ar/????/??????-????-?????-???-???-??????-????-?????-??????-??-????-?????","source_2":"https://www.google.com/maps/place/%D9%85%D8%B7%D8%A7%D8%B1+%D8%AD%D9%84%D9%8A%D9%88%D9%87+%D9%87%D9%8A%D8%A6%D9%87+%D8%A7%D9%84%D8%AD%D8%B4%D8%AF+%D8%A7%D9%84%D8%B4%D8%B9%D8%A8%D9%8A+%D8%A7%D9%84%D9%85%D9%82%D8%B1+%D8%A7%D9%84%D9%85%D8%B3%D9%8A%D8%B7%D8%","sources":"#REF!"}},{"type":"Feature","geometry":{"type":"Point","coordinates":[39.96790000021128,33.669589999770345]},"properties":{"event_id":99,"data_org":"Green","post_date":"2026-03-21T00:00:00.000Z","pub_date":"2026-03-21T00:00:00.000Z","strikedate":"2026-03-21T00:00:00.000Z","time":"1900-01-01T00:00:00.000Z","event_type":"Reported Airstrike","actor":"UNK","subject":"","site_type":"military","siteStype":"","city":"Akashat","province":"Anbar","country":"Iraq","latitude":33.66959,"longitude":39.9679,"source_1":"https://x.com/Tammuz_Intel/status/2035362588498788593","source_2":"","sources":"#REF!"}},{"type":"Feature","geometry":{"type":"Point","coordinates":[43.066955999673766,36.36414299976523]},"properties":{"event_id":100,"data_org":"Green","post_date":"2026-03-21T00:00:00.000Z","pub_date":"2026-03-22T00:00:00.000Z","strikedate":"2026-03-21T00:00:00.000Z","time":"1900-01-01T00:00:00.000Z","event_type":"Reported Airstrike","actor":"UNK","subject":"","site_type":"military","siteStype":"","city":"Mosul","province":"Ninewa","country":"Iraq","latitude":36.364143,"longitude":43.066956,"source_1":"DNGTS: https://shafaq.com/ar/%D8%A3%D9%85%D9%80%D9%86/%D9%82%D8%B5%D9%81-%D8%AC%D9%88%D9%8A-%D9%8A%D8%B3%D8%AA%D9%87%D8%AF%D9%81-%D9%85%D9%82%D8%B1%D8%A7%D8%AA-%D9%84%D9%84%D8%AD%D8%B4%D8%AF-%D8%A7%D9%84%D8%B4%D8%B9%D8%A8%D9%8A-%D9%81%D9%8A-%D8%B3%D9%87%","source_2":"https://x.com/Tammuz_Intel/status/2035484506354762016","sources":"#REF!"}},{"type":"Feature","geometry":{"type":"Point","coordinates":[44.23639999975237,32.91787999963316]},"properties":{"event_id":102,"data_org":"Green","post_date":"2026-03-22T00:00:00.000Z","pub_date":"2026-03-22T00:00:00.000Z","strikedate":"2026-03-22T00:00:00.000Z","time":"1900-01-01T00:00:00.000Z","event_type":"Reported Airstrike","actor":"UNK","subject":"","site_type":"military","siteStype":"","city":"Jurf Sakhr","province":"Babil","country":"Iraq","latitude":32.91788,"longitude":44.2364,"source_1":"DNGTS: https://shafaq dot com/ar/????/???????-?????-?????-??????-???????-??????-?????-????","source_2":"https://x.com/Tammuz_Intel/status/2035769544371831169","sources":"#REF!"}},{"type":"Feature","geometry":{"type":"Point","coordinates":[43.60476500035613,34.7581100002911]},"properties":{"event_id":104,"data_org":"Green","post_date":"2026-03-23T00:00:00.000Z","pub_date":"2026-03-23T00:00:00.000Z","strikedate":"2026-03-23T00:00:00.000Z","time":"1900-01-01T00:00:00.000Z","event_type":"Reported Airstrike","actor":"UNK","subject":"","site_type":"military","siteStype":"military : base","city":"al Hamra","province":"Salah al Din","country":"Iraq","latitude":34.75811,"longitude":43.604765,"source_1":"DNGTS: https://shafaq dot com/ar/????/???-???-??????-????-?????-??????-??-????-?????-1","source_2":"https://x.com/LizHurra/status/2036064928952467628","sources":"#REF!"}},{"type":"Feature","geometry":{"type":"Point","coordinates":[43.96138600012087,33.434068999995844]},"properties":{"event_id":105,"data_org":"Green","post_date":"2026-03-23T00:00:00.000Z","pub_date":"2026-03-23T00:00:00.000Z","strikedate":"2026-03-23T00:00:00.000Z","time":"1900-01-01T00:00:00.000Z","event_type":"Reported Airstrike","actor":"UNK","subject":"","site_type":"military","siteStype":"military : base","city":"Karma","province":"Anbar","country":"Iraq","latitude":33.434069,"longitude":43.961386,"source_1":"DNGTS: https://shafaq dot com/ar/????/???-???-??????-????-?????-??????-??-????-?????-1","source_2":"https://x.com/LizHurra/status/2036064928952467628","sources":"#REF!"}},{"type":"Feature","geometry":{"type":"Point","coordinates":[43.10421700015482,36.422566000312614]},"properties":{"event_id":106,"data_org":"Green","post_date":"2026-03-24T00:00:00.000Z","pub_date":"2026-03-24T00:00:00.000Z","strikedate":"2026-03-24T00:00:00.000Z","time":"1900-01-01T00:00:00.000Z","event_type":"Confirmed Airstrike","actor":"US","subject":"","site_type":"military","siteStype":"military : hq","city":"Mosul","province":"Ninewa","country":"Iraq","latitude":36.422566,"longitude":43.104217,"source_1":"https://t.me/nayaforiraq/63949","source_2":"https://x.com/acceladealer/status/2036397940374225291","sources":"#REF!"}},{"type":"Feature","geometry":{"type":"Point","coordinates":[43.16241300027872,36.37189900006642]},"properties":{"event_id":107,"data_org":"Green","post_date":"2026-03-24T00:00:00.000Z","pub_date":"2026-03-24T00:00:00.000Z","strikedate":"2026-03-24T00:00:00.000Z","time":"1900-01-01T00:00:00.000Z","event_type":"Reported Airstrike","actor":"US","subject":"","site_type":"military","siteStype":"","city":"Mosul","province":"Ninewa","country":"Iraq","latitude":36.371899,"longitude":43.162413,"source_1":"https://x.com/Tammuz_Intel/status/2036387672403440085","source_2":"","sources":"#REF!"}},{"type":"Feature","geometry":{"type":"Point","coordinates":[43.489765999653045,34.9297019997302]},"properties":{"event_id":109,"data_org":"Green","post_date":"2026-03-24T00:00:00.000Z","pub_date":"2026-03-24T00:00:00.000Z","strikedate":"2026-03-24T00:00:00.000Z","time":"1900-01-01T00:00:00.000Z","event_type":"Reported Airstrike","actor":"UNK","subject":"","site_type":"military","siteStype":"","city":"Baiji","province":"Salah al Din","country":"Iraq","latitude":34.929702,"longitude":43.489766,"source_1":"DNGTS: https://www.shafaq dot com/ar/????/???-???-??????-????-?????-??????-??-????-?????-1-1","source_2":"DNGTS: https://www.shafaq dot com/ar/????/????-?????-7-?????-???-??-??-???????-??????-???????-????-?????-??????","sources":"#REF!"}},{"type":"Feature","geometry":{"type":"Point","coordinates":[43.59521800016392,33.374287999638874]},"properties":{"event_id":112,"data_org":"Green","post_date":"2026-03-25T00:00:00.000Z","pub_date":"2026-03-25T00:00:00.000Z","strikedate":"2026-03-25T00:00:00.000Z","time":"1900-01-01T00:00:00.000Z","event_type":"Reported Airstrike","actor":"UNK","subject":"","site_type":"military","siteStype":"military : base","city":"Habbaniyah","province":"Anbar","country":"Iraq","latitude":33.374288,"longitude":43.595218,"source_1":"DNGTS: https://shafaq dot com/ar/%D8%A3%D9%85%D9%80%D9%86/%D9%82%D8%B5%D9%81-%D8%AC%D9%88%D9%8A-%D9%85%D9%83%D8%AB%D9%81-%D9%8A%D8%B3%D8%AA%D9%87%D8%AF%D9%81-%D9%85%D9%82%D8%B1%D8%A7-%D9%84%D9%84%D8%AD%D8%B4%D8%AF-%D8%A7%D9%84%D8%B4%D8%B9%D8%A8%D9%8A-%D8","source_2":"","sources":"#REF!"}},{"type":"Feature","geometry":{"type":"Point","coordinates":[43.5876140002357,33.37822499998714]},"properties":{"event_id":113,"data_org":"Green","post_date":"2026-03-25T00:00:00.000Z","pub_date":"2026-03-25T00:00:00.000Z","strikedate":"2026-03-25T00:00:00.000Z","time":"1900-01-01T00:00:00.000Z","event_type":"Reported Airstrike","actor":"UNK","subject":"","site_type":"military","siteStype":"military : base","city":"Habbaniyah","province":"Anbar","country":"Iraq","latitude":33.378225,"longitude":43.587614,"source_1":"https://x.com/modmiliq/status/2036714426657657222","source_2":"https://x.com/obretix/status/2037263604831883681","sources":"#REF!"}},{"type":"Feature","geometry":{"type":"Point","coordinates":[41.16407000019162,34.3169300002728]},"properties":{"event_id":114,"data_org":"Green","post_date":"2026-03-25T00:00:00.000Z","pub_date":"2026-03-25T00:00:00.000Z","strikedate":"2026-03-25T00:00:00.000Z","time":"1900-01-01T00:00:00.000Z","event_type":"Reported Airstrike","actor":"UNK","subject":"","site_type":"military","siteStype":"","city":"al Qaim","province":"Anbar","country":"Iraq","latitude":34.31693,"longitude":41.16407,"source_1":"https://x.com/LawkGhafuri/status/2036773317974126715","source_2":"https://x.com/Tammuz_Intel/status/2036742833176998332","sources":"#REF!"}},{"type":"Feature","geometry":{"type":"Point","coordinates":[43.489765999653045,34.9297019997302]},"properties":{"event_id":115,"data_org":"Green","post_date":"2026-03-25T00:00:00.000Z","pub_date":"2026-03-25T00:00:00.000Z","strikedate":"2026-03-25T00:00:00.000Z","time":"1900-01-01T00:00:00.000Z","event_type":"Reported Airstrike","actor":"US","subject":"","site_type":"military","siteStype":"military : unknown","city":"Baiji","province":"Salah al Din","country":"Iraq","latitude":34.929702,"longitude":43.489766,"source_1":"http://x.com/hey_itsmyturn/status/2036807232776437761","source_2":"DNGTS: https://shafaq dot com/ar/%D8%A3%D9%85%D9%80%D9%86/%D8%B3%D9%85%D8%A7%D8%B9-%D8%AF%D9%88%D9%8A-%D8%A7%D9%86%D9%81%D8%AC%D8%A7%D8%B1-%D8%B4%D9%85%D8%A7%D9%84%D9%8A-%D8%B5%D9%84%D8%A7%D8%AD-%D8%A7%D9%84%D8%AF%D9%8A%D9%86","sources":"#REF!"}},{"type":"Feature","geometry":{"type":"Point","coordinates":[44.58554899983339,34.72654900025426]},"properties":{"event_id":117,"data_org":"Green","post_date":"2026-03-26T00:00:00.000Z","pub_date":"2026-03-26T00:00:00.000Z","strikedate":"2026-03-26T00:00:00.000Z","time":"1900-01-01T00:00:00.000Z","event_type":"Reported Airstrike","actor":"UNK","subject":"","site_type":"military","siteStype":"military : base","city":"Amerli","province":"Salah al Din","country":"Iraq","latitude":34.726549,"longitude":44.585549,"source_1":"DNGTS: https://www.shafaq dot com/ar/????/?????-????-??????-????-??????-????-????-?????","source_2":"","sources":"#REF!"}},{"type":"Feature","geometry":{"type":"Point","coordinates":[44.10544300025376,35.68397700021503]},"properties":{"event_id":118,"data_org":"Green","post_date":"2026-03-26T00:00:00.000Z","pub_date":"2026-03-26T00:00:00.000Z","strikedate":"2026-03-26T00:00:00.000Z","time":"1900-01-01T00:00:00.000Z","event_type":"Reported Airstrike","actor":"UNK","subject":"","site_type":"military","siteStype":"","city":"Dibis","province":"Kirkuk","country":"Iraq","latitude":35.683977,"longitude":44.105443,"source_1":"DNGTS: https://www.shafaq dot com/ar/????/???-???-??????-?????-??????-??-?????","source_2":"","sources":"#REF!"}},{"type":"Feature","geometry":{"type":"Point","coordinates":[41.16407000019162,34.3169300002728]},"properties":{"event_id":119,"data_org":"Green","post_date":"2026-03-26T00:00:00.000Z","pub_date":"2026-03-27T00:00:00.000Z","strikedate":"2026-03-26T00:00:00.000Z","time":"1900-01-01T00:00:00.000Z","event_type":"Reported Airstrike","actor":"UNK","subject":"","site_type":"military","siteStype":"military : base","city":"al Qaim","province":"Anbar","country":"Iraq","latitude":34.31693,"longitude":41.16407,"source_1":"DNGTS: https://www.shafaq dot com/ar/????/????-????-??????-????-????-??????-???-????-????-??????","source_2":"https://x.com/Tammuz_Intel/status/2037268536276468172","sources":"#REF!"}},{"type":"Feature","geometry":{"type":"Point","coordinates":[44.23639999975237,32.91787999963316]},"properties":{"event_id":120,"data_org":"Green","post_date":"2026-03-27T00:00:00.000Z","pub_date":"2026-03-28T00:00:00.000Z","strikedate":"2026-03-27T00:00:00.000Z","time":"1900-01-01T00:00:00.000Z","event_type":"Reported Airstrike","actor":"UNK","subject":"","site_type":"military","siteStype":"","city":"Jurf Sakhr","province":"Babil","country":"Iraq","latitude":32.91788,"longitude":44.2364,"source_1":"https://x.com/Tammuz_Intel/status/2037667929068560840","source_2":"","sources":"#REF!"}},{"type":"Feature","geometry":{"type":"Point","coordinates":[45.06675400012824,32.909992999823864]},"properties":{"event_id":121,"data_org":"Green","post_date":"2026-03-27T00:00:00.000Z","pub_date":"2026-03-28T00:00:00.000Z","strikedate":"2026-03-27T00:00:00.000Z","time":"1900-01-01T00:00:00.000Z","event_type":"Reported Airstrike","actor":"UNK","subject":"","site_type":"military","siteStype":"","city":"Azizyah","province":"Wasit","country":"Iraq","latitude":32.909993,"longitude":45.066754,"source_1":"DNGTS: https://www.shafaq dot com/ar/????/???-???-??-????","source_2":"","sources":"#REF!"}},{"type":"Feature","geometry":{"type":"Point","coordinates":[43.089050000306294,36.4078099996709]},"properties":{"event_id":126,"data_org":"Green","post_date":"2026-03-28T00:00:00.000Z","pub_date":"2026-03-29T00:00:00.000Z","strikedate":"2026-03-28T00:00:00.000Z","time":"1900-01-01T00:00:00.000Z","event_type":"Report of Explosion with Footage","actor":"US","subject":"","site_type":"military","siteStype":"military : hq","city":"Mosul","province":"Ninewa","country":"Iraq","latitude":36.40781,"longitude":43.08905,"source_1":"https://x.com/hey_itsmyturn/status/2038102628442280311?s=20","source_2":"https://x.com/hey_itsmyturn/status/2038106898696654896?s=20","sources":"#REF!"}},{"type":"Feature","geometry":{"type":"Point","coordinates":[44.6249689995902,34.88433899977376]},"properties":{"event_id":128,"data_org":"Green","post_date":"2026-03-29T00:00:00.000Z","pub_date":"2026-03-29T00:00:00.000Z","strikedate":"2026-03-29T00:00:00.000Z","time":"1900-01-01T00:00:00.000Z","event_type":"Reported Airstrike","actor":"UNk","subject":"","site_type":"military","siteStype":"","city":"Tuz Khurmatu","province":"Salah al Din","country":"Iraq","latitude":34.884339,"longitude":44.624969,"source_1":"DNGTS: https://shafaq dot com/ar/????/????-????-??????-?????-?????-??????-?????-??????","source_2":"","sources":"#REF!"}},{"type":"Feature","geometry":{"type":"Point","coordinates":[44.23639999975237,32.91787999963316]},"properties":{"event_id":130,"data_org":"Green","post_date":"2026-03-30T00:00:00.000Z","pub_date":"2026-03-31T00:00:00.000Z","strikedate":"2026-03-30T00:00:00.000Z","time":"1900-01-01T00:00:00.000Z","event_type":"Reported Airstrike","actor":"UNK","subject":"","site_type":"unknown","siteStype":"","city":"Jurf Sakhr","province":"Babil","country":"Iraq","latitude":32.91788,"longitude":44.2364,"source_1":"DNGTS: https://shafaq dot com/ar/????/???-???-??????-???-?????-??-????-4","source_2":"","sources":""}},{"type":"Feature","geometry":{"type":"Point","coordinates":[43.96138600012087,33.434068999995844]},"properties":{"event_id":131,"data_org":"Green","post_date":"2026-03-30T00:00:00.000Z","pub_date":"2026-03-31T00:00:00.000Z","strikedate":"2026-03-30T00:00:00.000Z","time":"1900-01-01T00:00:00.000Z","event_type":"Reported Airstrike","actor":"UNK","subject":"","site_type":"military","siteStype":"military : hq","city":"Karma","province":"Anbar","country":"Iraq","latitude":33.434069,"longitude":43.961386,"source_1":"DNGTS: https://shafaq dot com/ar/????/???-??????-?????-?????-??????-???-??????-???-????","source_2":"","sources":""}},{"type":"Feature","geometry":{"type":"Point","coordinates":[43.41563000027693,36.22253100013011]},"properties":{"event_id":132,"data_org":"Green","post_date":"2026-03-31T00:00:00.000Z","pub_date":"2026-03-31T00:00:00.000Z","strikedate":"2026-03-31T00:00:00.000Z","time":"1900-01-01T00:00:00.000Z","event_type":"Reported Airstrike","actor":"UNK","subject":"","site_type":"military","siteStype":"","city":"Balawat","province":"Ninewa","country":"Iraq","latitude":36.222531,"longitude":43.41563,"source_1":"DNGTS: https://shafaq dot com/ar/????/????-????-??????-????-?????-????-??????-????-???-??????","source_2":"","sources":""}},{"type":"Feature","geometry":{"type":"Point","coordinates":[40.282531000141404,33.0373569997183]},"properties":{"event_id":133,"data_org":"Green","post_date":"2026-03-31T00:00:00.000Z","pub_date":"2026-03-31T00:00:00.000Z","strikedate":"2026-03-31T00:00:00.000Z","time":"1900-01-01T00:00:00.000Z","event_type":"Reported Airstrike","actor":"UNK","subject":"","site_type":"military","siteStype":"","city":"Rutba","province":"Anbar","country":"Iraq","latitude":33.037357,"longitude":40.282531,"source_1":"https://x.com/Tammuz_Intel/status/2038962101863993611","source_2":"DNGTS: https://shafaq dot com/ar/????/?????-?????-????-????-??????-????-????-???-?-?????-???-??????","sources":"https://x.com/acceladealer/status/2038964480294490602?s=20; https://x.com/acceladealer/status/2038964485084348564?s=20; https://x.com/hey_itsmyturn/status/2038948381809135887?s=20; https://t.me/naya_foriraq/67126"}},{"type":"Feature","geometry":{"type":"Point","coordinates":[43.38833299973959,35.879444000262026]},"properties":{"event_id":138,"data_org":"Green","post_date":"2026-04-02T00:00:00.000Z","pub_date":"2026-04-02T00:00:00.000Z","strikedate":"2026-04-02T00:00:00.000Z","time":"1900-01-01T00:00:00.000Z","event_type":"Reported Airstrike","actor":"UNK","subject":"","site_type":"military","siteStype":"","city":"Sultan Abdullah","province":"Ninewa","country":"Iraq","latitude":35.879444,"longitude":43.388333,"source_1":"DNGTS: https://shafaq dot com/ar/????/???-???-??????-?????-?????-?????-??-????-??????","source_2":"","sources":"#REF!"}},{"type":"Feature","geometry":{"type":"Point","coordinates":[42.37805599974101,34.13972199975058]},"properties":{"event_id":139,"data_org":"Green","post_date":"2026-04-02T00:00:00.000Z","pub_date":"2026-04-02T00:00:00.000Z","strikedate":"2026-04-02T00:00:00.000Z","time":"1900-01-01T00:00:00.000Z","event_type":"Reported Airstrike","actor":"UNK","subject":"","site_type":"military","siteStype":"","city":"Haditha","province":"Al Anbar","country":"Iraq","latitude":34.139722,"longitude":42.378056,"source_1":"DNGTS: https://shafaq dot com/ar/????/???-???-????-???-57-??????-??????-??-??-????","source_2":"","sources":"#REF!"}},{"type":"Feature","geometry":{"type":"Point","coordinates":[40.270798999835876,33.038907999938196]},"properties":{"event_id":140,"data_org":"Green","post_date":"2026-04-03T00:00:00.000Z","pub_date":"2026-04-03T00:00:00.000Z","strikedate":"2026-04-03T00:00:00.000Z","time":"1900-01-01T00:00:00.000Z","event_type":"Reported Airstrike","actor":"UNK","subject":"","site_type":"civilian","siteStype":"civilian : industrial","city":"","province":"Al Anbar","country":"Iraq","latitude":33.038908,"longitude":40.270799,"source_1":"DNGTS: https://shafaq dot com/ar/????/???-???-??????-????-???-??-??????-????-??-????","source_2":"","sources":"#REF!"}},{"type":"Feature","geometry":{"type":"Point","coordinates":[43.37931000032734,36.35162700023461]},"properties":{"event_id":141,"data_org":"Green","post_date":"2026-04-02T00:00:00.000Z","pub_date":"2026-04-03T00:00:00.000Z","strikedate":"2026-04-02T00:00:00.000Z","time":"1900-01-01T00:00:00.000Z","event_type":"Reported Airstrike","actor":"UNK","subject":"","site_type":"military","siteStype":"military : base","city":"Bartella","province":"Ninewa","country":"Iraq","latitude":36.351627,"longitude":43.37931,"source_1":"DNGTS: https://shafaq dot com/ar/????/???-???-??????-????-?????-??????-??-???-?????","source_2":"","sources":"#REF!"}},{"type":"Feature","geometry":{"type":"Point","coordinates":[41.16407000019162,34.3169300002728]},"properties":{"event_id":142,"data_org":"Green","post_date":"2026-04-04T00:00:00.000Z","pub_date":"2026-04-04T00:00:00.000Z","strikedate":"2026-04-04T00:00:00.000Z","time":"1900-01-01T00:00:00.000Z","event_type":"Reported Airstrike","actor":"UNK","subject":"","site_type":"military","siteStype":"military : hq","city":"al Qaim","province":"Al Anbar","country":"Iraq","latitude":34.31693,"longitude":41.16407,"source_1":"DNGTS: https://al-hashed.gov dot iq/2026/04/04/????-?????-??????-????-??????-??????-?/","source_2":"DNGTS: https://shafaq dot com/ar/????/????-?????-????????-???-?????-??????-????-??-????","sources":"#REF!"}},{"type":"Feature","geometry":{"type":"Point","coordinates":[43.073249999897854,36.40363000015903]},"properties":{"event_id":143,"data_org":"Green","post_date":"2026-04-04T00:00:00.000Z","pub_date":"2026-04-04T00:00:00.000Z","strikedate":"2026-04-04T00:00:00.000Z","time":"1900-01-01T00:00:00.000Z","event_type":"Reported Airstrike","actor":"UNK","subject":"","site_type":"","siteStype":"","city":"Sharikhan al Sufla","province":"Ninewa","country":"Iraq","latitude":36.40363,"longitude":43.07325,"source_1":"DNGTS: https://shafaq dot com/ar/????/???-???-??????-?????-???????-?????-??????","source_2":"","sources":"#REF!"}},{"type":"Feature","geometry":{"type":"Point","coordinates":[43.489765999653045,34.9297019997302]},"properties":{"event_id":144,"data_org":"Green","post_date":"2026-04-04T00:00:00.000Z","pub_date":"2026-04-05T00:00:00.000Z","strikedate":"2026-04-04T00:00:00.000Z","time":"1900-01-01T00:00:00.000Z","event_type":"Reported Airstrike","actor":"UNK","subject":"","site_type":"military","siteStype":"","city":"al Siniya","province":"Saladin","country":"Iraq","latitude":34.929702,"longitude":43.489766,"source_1":"DNGtS: https://shafaq dot com/ar/????/?????-??????-??-??-???-??-??????-?????-31-??-???????-?????-?????","source_2":"","sources":"#REF!"}},{"type":"Feature","geometry":{"type":"Point","coordinates":[44.620785000034694,34.881140000052696]},"properties":{"event_id":145,"data_org":"Green","post_date":"2026-04-04T00:00:00.000Z","pub_date":"2026-04-05T00:00:00.000Z","strikedate":"2026-04-05T00:00:00.000Z","time":"1900-01-01T00:00:00.000Z","event_type":"Reported Airstrike","actor":"UNK","subject":"","site_type":"military","siteStype":"","city":"Tuz Khurmatu","province":"Saladin","country":"Iraq","latitude":34.88114,"longitude":44.620785,"source_1":"DNGTTS: https://shafaq dot com/ar/????/???-???-??????-????-?????-??????-?????-?????","source_2":"DNGTS: https://al-hashed.gov dot iq/2026/04/05/?????-???-?????-??????-?????-??????-??/","sources":"#REF!"}},{"type":"Feature","geometry":{"type":"Point","coordinates":[43.489765999653045,34.9297019997302]},"properties":{"event_id":146,"data_org":"Green","post_date":"2026-04-05T00:00:00.000Z","pub_date":"2026-04-05T00:00:00.000Z","strikedate":"2026-04-05T00:00:00.000Z","time":"1900-01-01T00:00:00.000Z","event_type":"Reported Airstrike","actor":"UNK","subject":"","site_type":"military","siteStype":"","city":"al Siniya","province":"Saladin","country":"Iraq","latitude":34.929702,"longitude":43.489766,"source_1":"DNGTS: https://shafaq dot com/ar/????/??????-??????-????????-????-?????-??????-??-????","source_2":"DNGTS: https://al-hashed.gov dot iq/2026/04/05/?????-????-??????-??????-??????-31-???/","sources":"#REF!"}},{"type":"Feature","geometry":{"type":"Point","coordinates":[44.58554899983339,34.72654900025426]},"properties":{"event_id":147,"data_org":"Green","post_date":"2026-04-04T00:00:00.000Z","pub_date":"2026-04-05T00:00:00.000Z","strikedate":"2026-04-04T00:00:00.000Z","time":"1900-01-01T00:00:00.000Z","event_type":"Reported Airstrike","actor":"UNK","subject":"","site_type":"military","siteStype":"","city":"Amerli","province":"Saladin","country":"Iraq","latitude":34.726549,"longitude":44.585549,"source_1":"DNGTS: https://al-hashed.gov dot iq/2026/04/05/????-???????-??????-??????-?????-52-??-?/","source_2":"","sources":"#REF!"}},{"type":"Feature","geometry":{"type":"Point","coordinates":[44.620785000034694,34.881140000052696]},"properties":{"event_id":148,"data_org":"Green","post_date":"2026-04-05T00:00:00.000Z","pub_date":"2026-04-06T00:00:00.000Z","strikedate":"2026-04-05T00:00:00.000Z","time":"1900-01-01T00:00:00.000Z","event_type":"Reported Airstrike","actor":"UNK","subject":"","site_type":"military","siteStype":"military : hq","city":"Tuz Khurmatu","province":"Saladin","country":"Iraq","latitude":34.88114,"longitude":44.620785,"source_1":"DNGTS: https://shafaq dot com/ar/????/??????-????-24-????-?????-????-????-????-?????-????-????-?????","source_2":"","sources":"#REF!"}},{"type":"Feature","geometry":{"type":"Point","coordinates":[41.10812100010531,34.35440300010966]},"properties":{"event_id":149,"data_org":"Green","post_date":"2026-04-06T00:00:00.000Z","pub_date":"2026-04-07T00:00:00.000Z","strikedate":"2026-04-06T00:00:00.000Z","time":"1900-01-01T00:00:00.000Z","event_type":"Reported Airstrike","actor":"UNK","subject":"","site_type":"military","siteStype":"","city":"Akashat","province":"al Anbar","country":"Iraq","latitude":34.354403,"longitude":41.108121,"source_1":"https://x.com/Tammuz_Intel/status/2041268835634794563","source_2":"DNGTS: https://shafaq dot com/ar/????/?????-????-??????-?????-????-??????-?????-??????-??-??-????; https://shafaq dot com/ar/????/???-???-??????-????-?????-??????-??-??-????; https://x.com/obretix/status/2043282615680012298?s=20","sources":"#REF!"}},{"type":"Feature","geometry":{"type":"Point","coordinates":[44.58554899983339,34.72654900025426]},"properties":{"event_id":150,"data_org":"Green","post_date":"2026-04-07T00:00:00.000Z","pub_date":"2026-04-07T00:00:00.000Z","strikedate":"2026-04-07T00:00:00.000Z","time":"1900-01-01T00:00:00.000Z","event_type":"Reported Airstrike","actor":"UNK","subject":"","site_type":"military","siteStype":"military : hq","city":"Amirli","province":"Saladin","country":"Iraq","latitude":34.726549,"longitude":44.585549,"source_1":"DNGTS: https://shafaq dot com/ar/????/???????-???-?????-?-????-????-???-????-?????-???-????-???????-?-???-????-???????","source_2":"","sources":"#REF!"}},{"type":"Feature","geometry":{"type":"Point","coordinates":[44.32812599964003,35.302576999708094]},"properties":{"event_id":151,"data_org":"Green","post_date":"2026-04-07T00:00:00.000Z","pub_date":"2026-04-07T00:00:00.000Z","strikedate":"2026-04-07T00:00:00.000Z","time":"1900-01-01T00:00:00.000Z","event_type":"Reported Airstrike","actor":"UNK","subject":"","site_type":"military","siteStype":"","city":"Taza","province":"Kirkuk","country":"Iraq","latitude":35.302577,"longitude":44.328126,"source_1":"DNGTS: https://shafaq dot com/ar/????/??????-??????-????????-??????-?????-??????-?????-?????","source_2":"","sources":"#REF!"}},{"type":"Feature","geometry":{"type":"Point","coordinates":[44.27701399976064,35.24579799979219]},"properties":{"event_id":152,"data_org":"Green","post_date":"2026-04-07T00:00:00.000Z","pub_date":"2026-04-07T00:00:00.000Z","strikedate":"2026-04-07T00:00:00.000Z","time":"1900-01-01T00:00:00.000Z","event_type":"Reported Airstrike","actor":"UNK","subject":"","site_type":"military","siteStype":"","city":"Bashir","province":"Kirkuk","country":"Iraq","latitude":35.245798,"longitude":44.277014,"source_1":"DNGTS: https://shafaq dot com/ar/????/??????-??????-????????-??????-?????-??????-?????-?????","source_2":"","sources":"#REF!"}},{"type":"Feature","geometry":{"type":"Point","coordinates":[47.76749600009224,30.23504799993588]},"properties":{"event_id":0,"data_org":"Green","post_date":"2026-04-07T00:00:00.000Z","pub_date":"2026-04-07T00:00:00.000Z","strikedate":"2026-04-07T00:00:00.000Z","time":"1900-01-01T00:00:00.000Z","event_type":"Reported Airstrike","actor":"UNK","subject":"","site_type":"","siteStype":"","city":"Khor al Zubair","province":"Basra","country":"Iraq","latitude":30.235048,"longitude":47.767496,"source_1":"DNGTS: https://shafaq dot com/ar/%D8%A3%D9%85%D9%80%D9%86/%D8%AA%D9%81%D8%A7%D8%B5%D9%8A%D9%84-%D8%AD%D8%B5%D8%B1%D9%8A%D8%A9-%D9%84%D9%87%D8%AC%D9%88%D9%85-%D8%A7%D9%84%D8%A8%D8%B5%D8%B1%D8%A9-%D8%B5%D8%A7%D8%B1%D9%88%D8%AE-%D9%85%D9%8A%D8%B1%D9%83%D9%8","source_2":"https://www.reuters.com/world/middle-east/least-three-killed-after-rockets-launched-kuwait-hit-house-near-iraqs-basra-2026-04-07/","sources":""}},{"type":"Feature","geometry":{"type":"Point","coordinates":[44.077117000219715,35.66981599967229]},"properties":{"event_id":153,"data_org":"Green","post_date":"2026-04-06T00:00:00.000Z","pub_date":"2026-04-07T00:00:00.000Z","strikedate":"2026-04-07T00:00:00.000Z","time":"1900-01-01T00:00:00.000Z","event_type":"Reported Airstrike","actor":"UNK","subject":"","site_type":"military","siteStype":"military : hq","city":"Dibis","province":"Kirkuk","country":"Iraq","latitude":35.669816,"longitude":44.077117,"source_1":"DNGTS: https://shafaq dot com/ar/????/???-???-??????-????-?????-??????-??-?????","source_2":"","sources":"#REF!"}},{"type":"Feature","geometry":{"type":"Point","coordinates":[44.52102099985052,33.84000800015164]},"properties":{"event_id":154,"data_org":"Green","post_date":"2026-04-07T00:00:00.000Z","pub_date":"2026-04-07T00:00:00.000Z","strikedate":"2026-04-07T00:00:00.000Z","time":"1900-01-01T00:00:00.000Z","event_type":"Report of Explosion with Footage","actor":"US","subject":"","site_type":"","siteStype":"military : hq","city":"Khalis","province":"Diyala","country":"Iraq","latitude":33.840008,"longitude":44.521021,"source_1":"https://x.com/hey_itsmyturn/status/2041571628249755780?s=20","source_2":"DNTS: https://shafaq dot com/ar/%D8%A3%D9%85%D9%80%D9%86/%D9%82%D8%B5%D9%81-%D8%AC%D9%88%D9%8A-%D9%8A%D8%B3%D8%AA%D9%87%D8%AF%D9%81-%D9%85%D9%82%D8%B1%D8%A7-%D9%84%D9%84%D8%AD%D8%B4%D8%AF-%D8%A7%D9%84%D8%B4%D8%B9%D8%A8%D9%8A-%D9%81%D9%8A-%D8%AF%D9%8A%D8%","sources":"#REF!"}},{"type":"Feature","geometry":{"type":"Point","coordinates":[44.15271999965878,33.46473400002583]},"properties":{"event_id":157,"data_org":"Green","post_date":"2026-04-07T00:00:00.000Z","pub_date":"2026-04-08T00:00:00.000Z","strikedate":"2026-04-07T00:00:00.000Z","time":"1900-01-01T00:00:00.000Z","event_type":"Reported Airstrike","actor":"UNK","subject":"","site_type":"","siteStype":"","city":"Baghdad","province":"Baghdad","country":"Iraq","latitude":33.464734,"longitude":44.15272,"source_1":"https://x.com/Tammuz_Intel/status/2041619684894667152?s=20","source_2":"DNGTS: https://shafaq dot com/ar/????/????-????-????????-????-??????-????-????-?????-?????","sources":"#REF!"}},{"type":"Feature","geometry":{"type":"Point","coordinates":[44.430542999742684,33.34862299982129]},"properties":{"event_id":155,"data_org":"Green","post_date":"2026-04-07T00:00:00.000Z","pub_date":"2026-04-08T00:00:00.000Z","strikedate":"2026-04-07T00:00:00.000Z","time":"1900-01-01T00:00:00.000Z","event_type":"Report of Explosion with Footage","actor":"UNK","subject":"","site_type":"","siteStype":"","city":"Baghdad","province":"Baghdad","country":"Iraq","latitude":33.348623,"longitude":44.430543,"source_1":"https://x.com/Tammuz_Intel/status/2041622109407912354?s=20","source_2":"","sources":"#REF!"}},{"type":"Feature","geometry":{"type":"Point","coordinates":[44.295691000393546,33.46810899994857]},"properties":{"event_id":159,"data_org":"Green","post_date":"2026-04-07T00:00:00.000Z","pub_date":"2026-04-08T00:00:00.000Z","strikedate":"2026-04-07T00:00:00.000Z","time":"1900-01-01T00:00:00.000Z","event_type":"Reported Airstrike","actor":"US","subject":"","site_type":"","siteStype":"military : hq","city":"Taji","province":"Saladin","country":"Iraq","latitude":33.468109,"longitude":44.295691,"source_1":"https://x.com/LizHurra/status/2041634640675361189?s=20","source_2":"","sources":"#REF!"}}],"fileName":"US and Israeli Strikes in Iraq Evening of June 29, 2026"}