{"type":"FeatureCollection","features":[{"type":"Feature","geometry":{"bbox":[35.38111417688801,50.86778394338236,35.42114341257987,50.8762674261795],"type":"Polygon","coordinates":[[[35.38238430796042,50.86995279123061,0],[35.382588306355046,50.870157398902705,0],[35.38463445697582,50.87220946776767,0],[35.38533344835589,50.8729104596726,0],[35.387267787731346,50.87485028171724,0],[35.394545878416324,50.87771855433459,0],[35.40200615266518,50.87943086268628,0],[35.401280110265034,50.87973571238327,0],[35.40041481905327,50.88015822717959,0],[35.40204613379825,50.87970122548024,0],[35.40263762093856,50.87954654215882,0],[35.403025548764155,50.879445093401365,0],[35.40449970571585,50.87929219188446,0],[35.40657295200952,50.87929643045767,0],[35.407252815840565,50.879347394004036,0],[35.40736315268621,50.879341902659,0],[35.407229258661786,50.879126617457786,0],[35.40714010063726,50.87902678964918,0],[35.406986542484,50.87889019032086,0],[35.40680753712053,50.87875513292213,0],[35.40665089195761,50.87861816884167,0],[35.406524611484066,50.87850771733957,0],[35.40572556549644,50.8778090470177,0],[35.40406136018821,50.87733165278738,0],[35.40232637210727,50.87682291760448,0],[35.40050196928718,50.875914568186666,0],[35.39910238858203,50.874640677074055,0],[35.3984199624279,50.87311903577438,0],[35.39859012536834,50.87178512956312,0],[35.399347574791214,50.870358896272016,0],[35.40067084609872,50.869593569022605,0],[35.404304224333195,50.86925177896356,0],[35.40429799209878,50.869252437705796,0],[35.40378558498749,50.86930669335985,0],[35.40430426347271,50.86925184573239,0],[35.40554353637972,50.869120623743115,0],[35.408247837480644,50.86883427661592,0],[35.413157734140036,50.8683493867949,0],[35.414192594692764,50.86799653447515,0],[35.414711246928135,50.86735006250403,0],[35.41483132548152,50.86632047714086,0],[35.414536808437916,50.86500397193133,0],[35.413999070757406,50.86422252927984,0],[35.41297473068006,50.86389518025853,0],[35.41148773613744,50.86356956460358,0],[35.4081233492434,50.863035646444374,0],[35.40696846844013,50.8628523683975,0],[35.40624745497942,50.86275096988857,0],[35.40601773189896,50.86271866382092,0],[35.40572018754494,50.862891298739285,0],[35.40525793692821,50.86323157132174,0],[35.40470123789758,50.8638635612584,0],[35.40436325742686,50.8641495376857,0],[35.40408948169018,50.864419325503036,0],[35.40371061436219,50.86461988739446,0],[35.403238657740545,50.86476525306582,0],[35.40288680433773,50.86483318350773,0],[35.4026114487054,50.86485313306084,0],[35.4023847868056,50.86483281445316,0],[35.40205578772052,50.86479675509377,0],[35.40167497927545,50.86474034466027,0],[35.40094295763712,50.86454481171648,0],[35.40043489728768,50.86442676408344,0],[35.399938289824924,50.864312048289754,0],[35.399394274010675,50.86426255749853,0],[35.3988736084631,50.864217235327736,0],[35.39842485896524,50.86421623108972,0],[35.39773388171117,50.864242234151256,0],[35.397200899242996,50.8642832345418,0],[35.39654591975913,50.8643922342188,0],[35.3960779367499,50.86445923458059,0],[35.395718947894856,50.864528232034935,0],[35.39540895781321,50.864600232577516,0],[35.395077969238706,50.86470523126016,0],[35.39466798373497,50.86484222881854,0],[35.394301997268975,50.865001224416574,0],[35.39402400608032,50.86513922314734,0],[35.39016580593528,50.866157050332575,0],[35.38556447182589,50.86755863398154,0],[35.3854419929114,50.867614918068014,0],[35.38238430796042,50.86995279123061,0]]]},"properties":{"GlobalID":"{8E91FC99-8CE7-43B0-AC23-479BB4439C80}","Creator":"bcordola_understandingwar","EditDate":"2025-09-17T00:00:00.000Z","Editor":"bcordola_understandingwar","Shape__Are":2007496.47305,"Shape__Len":7909.76505628,"CreationDa":"2025-03-25T00:00:00.000Z"}},{"type":"Feature","geometry":null,"properties":{"GlobalID":"{70C3A711-BED8-4FA3-A8C6-99FD7EF3EAF2}","Creator":"bcordola_understandingwar","EditDate":"2025-03-25T00:00:00.000Z","Editor":"bcordola_understandingwar","Shape__Are":0,"Shape__Len":0,"CreationDa":"2025-03-25T00:00:00.000Z"}},{"type":"Feature","geometry":{"bbox":[34.250563448382,51.52701780302191,34.34886651712366,51.538599627359616],"type":"MultiPolygon","coordinates":[[[[34.332655962750955,51.52729166965873,0],[34.326240170770916,51.526023020460954,0],[34.32625441686863,51.52602593615463,0],[34.332655962750955,51.52729166965873,0]]],[[[34.332655962750955,51.52729166965873,0],[34.33407375816636,51.52762596954576,0],[34.334074846640085,51.52762619171346,0],[34.332655962750955,51.52729166965873,0]]],[[[34.259612195631746,51.54299820115889,0],[34.259798753894266,51.54296576920331,0],[34.259988263044725,51.54289351934912,0],[34.2616143017766,51.54272781060347,0],[34.26269765410242,51.54261740582791,0],[34.26888789249267,51.541986551053256,0],[34.28657231974513,51.54171207968046,0],[34.29836159623982,51.54221009059509,0],[34.30601525245709,51.542690479126435,0],[34.30873603999347,51.543285639665356,0],[34.31077287371307,51.54368874320171,0],[34.31393285973285,51.54454492636553,0],[34.31753178068832,51.54463839059186,0],[34.32419017447435,51.54377304588909,0],[34.3292197257443,51.54218955377864,0],[34.33260289582072,51.54088029017635,0],[34.338957569305734,51.53726859602506,0],[34.3435789743814,51.53446902347361,0],[34.344920689833074,51.53362265468443,0],[34.34538193765986,51.5326671903129,0],[34.344930734740494,51.531677156959745,0],[34.34346504637417,51.530538376663735,0],[34.33909810051047,51.528810473448154,0],[34.33407375816636,51.52762596954576,0],[34.32625441686863,51.52602593615463,0],[34.322893958094234,51.52536133036972,0],[34.31511080067919,51.52272201812104,0],[34.31242914160823,51.521273009696145,0],[34.311057600016966,51.51993322045466,0],[34.31067702188291,51.51956144755152,0],[34.30970651752493,51.518047632903325,0],[34.30883348846347,51.51637783671046,0],[34.30842956266718,51.51493898259313,0],[34.308321494453374,51.5149337031239,0],[34.30840053680445,51.5153449347354,0],[34.308397688835434,51.51564473819246,0],[34.30841518459804,51.51665448477206,0],[34.30839580886551,51.517375578968405,0],[34.30834477461167,51.51798996382108,0],[34.30827944088342,51.51850458511938,0],[34.308163655403916,51.5188556089544,0],[34.3080630820932,51.51913865890818,0],[34.307890109963665,51.51949031920688,0],[34.307677003474645,51.51983885886122,0],[34.30735095503957,51.520238619711016,0],[34.30706727666073,51.520520139563814,0],[34.306742137564754,51.52075215935353,0],[34.30629823000159,51.521031892722036,0],[34.30559881511483,51.52137870635434,0],[34.3051126891524,51.52158277381286,0],[34.304375685419515,51.52184375352974,0],[34.30359121925345,51.52208444029601,0],[34.30056269595627,51.52287224136415,0],[34.29963676181722,51.52303476877462,0],[34.298242116741385,51.523345224982656,0],[34.29710576711767,51.52361950052025,0],[34.29652948752735,51.52374006840972,0],[34.296158819614796,51.52384884685807,0],[34.296046331689084,51.52391670558748,0],[34.29593572021148,51.52422423996221,0],[34.295867605206276,51.52666122017575,0],[34.29590024785529,51.52915418356764,0],[34.295957468511276,51.53197519532541,0],[34.29595713663192,51.532232144453786,0],[34.29587877993247,51.53242809875904,0],[34.29578111920757,51.532481517142635,0],[34.29549974113514,51.532513174954744,0],[34.29339394054671,51.532507862611325,0],[34.28995520445548,51.53257903284244,0],[34.28746097362889,51.53259691621956,0],[34.28611236841124,51.53265929235795,0],[34.28586911448367,51.5326905081608,0],[34.28574976652917,51.53278698098707,0],[34.285679126678716,51.532987601283324,0],[34.28529676074156,51.53430982529891,0],[34.28521367724129,51.53461050451709,0],[34.26958416573466,51.533679269914394,0],[34.26509130995868,51.53338748224951,0],[34.26254073503135,51.53320440863485,0],[34.2613712415984,51.5331242033885,0],[34.26020629236022,51.53300111356051,0],[34.26017610904472,51.53315132216858,0],[34.26016907779544,51.534139921724005,0],[34.26007988595459,51.53526144272608,0],[34.25983471843108,51.53736602489221,0],[34.259641074397834,51.54065342374072,0],[34.259630729962126,51.542524114328685,0],[34.259612195631746,51.54299820115889,0]]]]},"properties":{"GlobalID":"{5B4A782C-5D71-4C29-9840-02D6E549B762}","Creator":"bcordola_understandingwar","EditDate":"2025-09-17T00:00:00.000Z","Editor":"bcordola_understandingwar","Shape__Are":8806985.65742,"Shape__Len":17246.4500463,"CreationDa":"2025-04-21T00:00:00.000Z"}},{"type":"Feature","geometry":{"bbox":[35.378665024814616,51.01034130212146,35.407703554583385,51.0222286506023],"type":"Polygon","coordinates":[[[35.40513112311079,51.02238464420125,0],[35.405445697886364,51.02206132426697,0],[35.4060454771014,51.02144486484648,0],[35.40626193033039,51.02042292842982,0],[35.406260688100566,51.020314156964844,0],[35.40625441919972,51.01976546779245,0],[35.40098542363149,51.020196794316526,0],[35.39948973605987,51.01994328866906,0],[35.39925020845115,51.01982472291779,0],[35.39797904563441,51.01919548662937,0],[35.3979644917783,51.018647126787165,0],[35.397962459912655,51.01864392477167,0],[35.397908549317705,51.01855894170081,0],[35.39771948608524,51.01826090008906,0],[35.396900015927784,51.01696902886395,0],[35.395868562118544,51.01583430694791,0],[35.39584268429462,51.01580583693676,0],[35.39574163225803,51.015694666676964,0],[35.39473843525442,51.015239653016344,0],[35.39358836960087,51.01471801777682,0],[35.39322022715332,51.01455103228564,0],[35.392906802777944,51.01440886505811,0],[35.39267761529729,51.014304905051866,0],[35.39267619777141,51.01431067570374,0],[35.39268008485605,51.01428235189405,0],[35.392677006962444,51.014253990502944,0],[35.39266703396029,51.01422623522807,0],[35.39265039221156,51.01419971600969,0],[35.39262745943191,51.01417503473304,0],[35.392598756116946,51.014152751568176,0],[35.3925842533117,51.01414378988636,0],[35.39252138522161,51.01411059702622,0],[35.392452028360125,51.01408271396713,0],[35.392377361313805,51.01406061452422,0],[35.39229865289862,51.01404467423129,0],[35.39221724060011,51.01403516395999,0],[35.392134507847054,51.01403224531708,0],[35.391919886408104,51.01402629579297,0],[35.391705075361166,51.01402414708143,0],[35.39096114145666,51.01399496808854,0],[35.39021791074305,51.01395966378831,0],[35.38947551674224,51.013918240522635,0],[35.38873409282478,51.01387070573252,0],[35.387993772185794,51.0138170679571,0],[35.38786625941238,51.01380293256304,0],[35.38774086450437,51.01378287606051,0],[35.38761831377579,51.01375701462122,0],[35.38749931706317,51.013725498040166,0],[35.38738456361347,51.01368850886799,0],[35.38726839229483,51.01364468263816,0],[35.38715825852272,51.0135953147847,0],[35.3870548600362,51.01354071808017,0],[35.38695885189555,51.01348123842394,0],[35.386870842332,51.01341725264989,0],[35.386791388894636,51.013349166138944,0],[35.386720994918285,51.013277410250296,0],[35.386660106335405,51.01320243958847,0],[35.38660910885167,51.01312472912251,0],[35.387395716637954,51.011937013987705,0],[35.38759883746691,51.011502038571166,0],[35.387664380353655,51.01110965671366,0],[35.387619582405755,51.010705378698596,0],[35.38744880014424,51.01012336777907,0],[35.38729432940681,51.00975855114485,0],[35.38710684678708,51.00952121574886,0],[35.38686876953294,51.00926775283342,0],[35.38669097864778,51.00912137373518,0],[35.38604545758221,51.008701906842326,0],[35.38570839135963,51.00903876149982,0],[35.38538052487899,51.00937903249236,0],[35.38506194989468,51.009722624808525,0],[35.384752755572954,51.01006944250764,0],[35.3844530284668,51.01041938874603,0],[35.38416285249163,51.010772365804485,0],[35.383882308901576,51.01112827511495,0],[35.38363219943438,51.01145892462885,0],[35.38339037238783,51.01179189552245,0],[35.38322626845487,51.012025981307836,0],[35.383066254119726,51.01226113509196,0],[35.38293787000944,51.01245509152466,0],[35.38281226387293,51.012649734409884,0],[35.38339169458008,51.01506216469736,0],[35.38342969523941,51.015279158326294,0],[35.38369570084291,51.016816113787115,0],[35.383811703380374,51.017480096235744,0],[35.38388670491147,51.0179710823984,0],[35.384147712526776,51.01967203540673,0],[35.3947692779714,51.01992329416968,0],[35.39588526861541,51.022221716815444,0],[35.40234905454454,51.02222459466634,0],[35.40274756806969,51.022269937631464,0],[35.40407492748248,51.02249248387063,0],[35.40436175788632,51.02256689199824,0],[35.40459235957718,51.022648405876396,0],[35.40476263843228,51.02274900907703,0],[35.40484873033328,51.02286324236712,0],[35.40513112311079,51.02238464420125,0]]]},"properties":{"GlobalID":"{305159E3-F69D-4EF9-9625-1B3EB2C78126}","Creator":"bcordola_understandingwar","EditDate":"2026-02-03T00:00:00.000Z","Editor":"bcordola_understandingwar","Shape__Are":905325.177121,"Shape__Len":5635.0728828,"CreationDa":"2025-04-21T00:00:00.000Z"}},{"type":"Feature","geometry":{"bbox":[34.48205126899343,51.24511414986439,34.69244961109403,51.272621432661296],"type":"Polygon","coordinates":[[[34.571591971597144,51.237992822973354,0],[34.57146482157333,51.23836861260039,0],[34.571370749961815,51.23864663303908,0],[34.57037889104353,51.24111850049223,0],[34.569232950341146,51.24361434853845,0],[34.568886281495736,51.24442818285288,0],[34.568260350573674,51.2458448235065,0],[34.56802923368683,51.246290904359185,0],[34.5675188571152,51.24736389367704,0],[34.56719144687441,51.24799079976201,0],[34.56697958955282,51.24833438688826,0],[34.5668929229018,51.24861166529602,0],[34.56674848007578,51.24899744458072,0],[34.566623289756436,51.24918430354628,0],[34.566526993621174,51.24926266438284,0],[34.56645958422847,51.249298831937104,0],[34.56622846602093,51.24931691649266,0],[34.565708446123935,51.24925061116972,0],[34.56517879996971,51.24914814300847,0],[34.563888383959934,51.24893114992531,0],[34.56306983629637,51.248768403318365,0],[34.5619720227604,51.248569490460746,0],[34.56108606695499,51.24844291133087,0],[34.56012306947498,51.24827413452373,0],[34.558553387183366,51.248045082362324,0],[34.55734001162206,51.24784013914977,0],[34.556513936953145,51.24768805901781,0],[34.55619404688784,51.247629166115026,0],[34.55505771248726,51.24738805430274,0],[34.55428731280444,51.24723132979929,0],[34.55344950978558,51.247158997996024,0],[34.55278504139554,51.247207223828404,0],[34.552467252838966,51.2472433923304,0],[34.55220440083829,51.24727630203035,0],[34.55214761706438,51.247283410089324,0],[34.55192174734146,51.24730157474114,0],[34.55172924440579,51.2473083179322,0],[34.550565101982315,51.24734909118752,0],[34.54942708992804,51.247995798370695,0],[34.54634579628319,51.24971632971416,0],[34.54324879436629,51.25142746951033,0],[34.541633185966845,51.2523195808233,0],[34.54108847076689,51.2525837190086,0],[34.53958537599068,51.252603501154674,0],[34.53958660451308,51.25257017457133,0],[34.53672529984112,51.25249357300639,0],[34.53504136799648,51.25247760172422,0],[34.533325538467174,51.25241443880846,0],[34.53105925069855,51.2524441091795,0],[34.52812516101554,51.25245866089343,0],[34.527680174004246,51.2525310911134,0],[34.52734887766813,51.252602035397544,0],[34.527072056556044,51.2527150926779,0],[34.52683250241424,51.25280863224273,0],[34.52654020470528,51.252912374698106,0],[34.5262905461078,51.25292990641678,0],[34.525827085808785,51.25290263926367,0],[34.52543926237071,51.25286962636973,0],[34.52512629285241,51.25280708473023,0],[34.524911391306,51.25272899153266,0],[34.524573950695185,51.25261442121303,0],[34.524083824129654,51.2524685318545,0],[34.52379170798938,51.25234861038881,0],[34.52175348731136,51.25032894527441,0],[34.51775196459571,51.24624571126333,0],[34.51486691538556,51.24335656999481,0],[34.513748966674996,51.24209573917332,0],[34.510383993424696,51.24218195370265,0],[34.50866158175888,51.24219766238508,0],[34.506409701688185,51.242218237482334,0],[34.505374788569306,51.242236465815324,0],[34.50183734783303,51.24251092632002,0],[34.498384538264126,51.24287401068076,0],[34.496668625713404,51.24302920573641,0],[34.49344246018897,51.243370208761874,0],[34.49149312919069,51.24357589447149,0],[34.49034981437133,51.243689894084696,0],[34.48949617033356,51.243813776389004,0],[34.487929236143685,51.24400620551784,0],[34.48756597078954,51.24405543680962,0],[34.48720183761976,51.24407790975393,0],[34.486758527299955,51.244143024291176,0],[34.48633985506455,51.244237563282766,0],[34.485922043206365,51.24435885892351,0],[34.48525860143324,51.24450408773064,0],[34.48439507376815,51.24461616428116,0],[34.4839535708747,51.24473775220106,0],[34.483602349962894,51.24486711724929,0],[34.48331346426531,51.24501948437368,0],[34.483011802798686,51.24521662358587,0],[34.48277181085245,51.245415954404564,0],[34.482644156549824,51.2455722248492,0],[34.482444787194616,51.245806804350664,0],[34.4856480545808,51.246575136046474,0],[34.48567562515741,51.246581748086804,0],[34.486980792216855,51.246894767323845,0],[34.48771056302852,51.24721778106073,0],[34.49117350159501,51.24875042995782,0],[34.49304917137541,51.25021053861266,0],[34.49469859406159,51.25149442121371,0],[34.49591979933148,51.252444924831885,0],[34.49716253100141,51.253490636033405,0],[34.498031968048366,51.25433599618797,0],[34.49831364200323,51.25469836335694,0],[34.49850924961637,51.255188047092474,0],[34.4986187972798,51.25559448367867,0],[34.49886917783986,51.25643672001215,0],[34.499166507122425,51.25726914610739,0],[34.49961249545815,51.25807217744602,0],[34.501571168578764,51.26053864086695,0],[34.5038137386012,51.26336222382963,0],[34.513263309824175,51.275331584884945,0],[34.51914553857099,51.28567824779297,0],[34.52705833795161,51.293793318683264,0],[34.53059121937865,51.29746735720478,0],[34.53112121932033,51.29801847189982,0],[34.532204060970216,51.29834705223696,0],[34.53336846349284,51.2986820625629,0],[34.535012228241655,51.298867549120686,0],[34.53876588887241,51.298485302177035,0],[34.539548752268544,51.29832710508645,0],[34.540266923421164,51.29818198512127,0],[34.5426419672682,51.2977019798371,0],[34.54477638234831,51.29727060818526,0],[34.546935224283494,51.29683422529169,0],[34.548961506498145,51.29637138257638,0],[34.549388172184656,51.2962805751517,0],[34.54960883374453,51.29613619655656,0],[34.54970741572539,51.29607137415135,0],[34.54973779912147,51.29594297176846,0],[34.54953205834206,51.295618974382144,0],[34.549222644503054,51.2951317116222,0],[34.548962610623825,51.29472219866246,0],[34.54758005707769,51.29313461621072,0],[34.54521632675564,51.291816798468,0],[34.54198843817872,51.29085007530006,0],[34.54051001212195,51.290124185470894,0],[34.539521074528956,51.28934987793376,0],[34.53867697058815,51.2887298038748,0],[34.53831748982018,51.28846572838112,0],[34.53671851755761,51.28729105641665,0],[34.53621360650743,51.286922033329226,0],[34.53576833375738,51.28681220540425,0],[34.53570336430835,51.28669250782247,0],[34.535609551732264,51.28651966182177,0],[34.53570008773866,51.28640270233317,0],[34.535875844746286,51.28617564700824,0],[34.53655711635447,51.28597225121997,0],[34.53787448585229,51.286003668806984,0],[34.53847528563546,51.28614858107871,0],[34.53896593706088,51.286156202481315,0],[34.539180111954295,51.28604244035828,0],[34.53974449612416,51.285829799769594,0],[34.54028730616486,51.28571916145416,0],[34.54092438038238,51.2855641100879,0],[34.541166341509744,51.28541520196065,0],[34.54135174886281,51.28529294457414,0],[34.54140773868362,51.28491573150629,0],[34.54127779108925,51.283965163980575,0],[34.54114997932972,51.283696227551765,0],[34.54093750672062,51.28345778008101,0],[34.54075182704836,51.28332896634276,0],[34.54059182365893,51.28314969180938,0],[34.5405832398044,51.28275910893618,0],[34.54103800785683,51.28229369354328,0],[34.54127452100485,51.28214905569478,0],[34.541470085508074,51.282217128494715,0],[34.54188556508171,51.28177536575254,0],[34.54188560638658,51.281775343808874,0],[34.541932713295616,51.28174653498035,0],[34.54299295589991,51.28089009672789,0],[34.543371822193016,51.28058404965791,0],[34.543758005364104,51.27998983665558,0],[34.54375802167694,51.27998980593837,0],[34.54404249832997,51.27955209485221,0],[34.54433273886038,51.278755036309114,0],[34.544293602171216,51.2781137010044,0],[34.544144885939296,51.277031734153724,0],[34.54401552312243,51.27601996058092,0],[34.54399321633327,51.27584548179672,0],[34.54391978917003,51.27527115893048,0],[34.54390185960293,51.275022921639284,0],[34.54381186852003,51.27377669074652,0],[34.54257992290995,51.26998964431647,0],[34.53815249623918,51.264449342251844,0],[34.535339483298685,51.26191901928942,0],[34.53215935293734,51.26009346539033,0],[34.529830333808974,51.25905241958364,0],[34.52964164836591,51.258537393243515,0],[34.529571089687565,51.25834480797616,0],[34.529625347556085,51.25816370124877,0],[34.529722466185895,51.25783953446223,0],[34.53026915949679,51.2574314090771,0],[34.5309449401134,51.2572611901036,0],[34.53233664971164,51.2573086134194,0],[34.534911559949826,51.25764939323055,0],[34.53507661842296,51.25767569792798,0],[34.53632317190104,51.2578842400863,0],[34.53697978896993,51.25799409015511,0],[34.53773110119478,51.25811977952573,0],[34.54175223841886,51.2583829249162,0],[34.543723379479,51.258103308979706,0],[34.54488737226878,51.256936951266816,0],[34.544881420453315,51.25671145479938,0],[34.5448753445522,51.25648139057899,0],[34.54486250870334,51.255995127114474,0],[34.54464541303552,51.255694096497365,0],[34.54424563288654,51.255279439947024,0],[34.54400173863017,51.25497438331525,0],[34.543867498079855,51.25473879321123,0],[34.543914874596936,51.254514501088984,0],[34.54400894498592,51.25435166521109,0],[34.544099805533705,51.25426322294339,0],[34.54416369327023,51.254201029168655,0],[34.544241319935495,51.254158301010754,0],[34.544398459632816,51.25412107113571,0],[34.54455441009898,51.25411001134595,0],[34.54493258595882,51.2541855695395,0],[34.54526096490025,51.25430836494903,0],[34.54574995407219,51.254537755239646,0],[34.54633390452256,51.2547632341664,0],[34.54712393204828,51.25500193591133,0],[34.547964629150535,51.25516557853274,0],[34.54888198009144,51.25537073768022,0],[34.54931699356309,51.255425681455264,0],[34.55222049996968,51.25597081368906,0],[34.55403848541785,51.256312136914026,0],[34.55626199585082,51.25672959235523,0],[34.55801276465944,51.25680694625836,0],[34.56046287300793,51.256559847583986,0],[34.56275871450699,51.2557373250437,0],[34.56505455485671,51.25491478529755,0],[34.5669375429521,51.25356258221008,0],[34.56748064510492,51.25271892980316,0],[34.567577223295324,51.25244262419065,0],[34.568982231849134,51.2512473490091,0],[34.57022791466278,51.250104382600654,0],[34.57138745375371,51.24917558128979,0],[34.57211343192864,51.248438107437394,0],[34.573032716614605,51.247744749437956,0],[34.573672556979595,51.24722146372158,0],[34.574466496311054,51.24667689209155,0],[34.57784515563356,51.24720804697828,0],[34.580869381717285,51.247872425802115,0],[34.5828692303008,51.24842440964331,0],[34.584907259344995,51.24906692518916,0],[34.58514576206097,51.24914211624851,0],[34.585297758034386,51.24989845771772,0],[34.58534211115161,51.25011916591939,0],[34.58482600110353,51.251234260747836,0],[34.580454134410836,51.26059947776294,0],[34.579881883249946,51.262091584246846,0],[34.57982189733654,51.26321478404792,0],[34.579708412664196,51.264656466720794,0],[34.57966849117552,51.26566016741832,0],[34.57957162619704,51.26661984818093,0],[34.5797126567159,51.26807816013356,0],[34.57966631930629,51.26914967358637,0],[34.58405203155735,51.27403951223495,0],[34.584816335282646,51.27493601247502,0],[34.58837035073928,51.27902383797879,0],[34.5885531055997,51.27924151031137,0],[34.58976520696739,51.28068516139273,0],[34.59040169841462,51.28183386243468,0],[34.59082181366095,51.28248463715691,0],[34.59112594138335,51.282955733345354,0],[34.59321053286533,51.28476190918376,0],[34.59536767918213,51.286025228003695,0],[34.595504562695005,51.2861053911969,0],[34.59964770435982,51.28755277595717,0],[34.60345957391016,51.288935705872916,0],[34.60512355163198,51.28935485644145,0],[34.60549035819232,51.28948732253369,0],[34.60577241028592,51.28984861428088,0],[34.605852909816505,51.29012434959117,0],[34.60863760984439,51.2897274891615,0],[34.6089871586441,51.2896776781418,0],[34.612201800947076,51.289219546242464,0],[34.61644845833841,51.28846071842442,0],[34.623868446112,51.28729326271547,0],[34.625623042949314,51.28679854921062,0],[34.631941754618836,51.28501666212363,0],[34.63593907194144,51.283766646430124,0],[34.63940839777032,51.282681574290145,0],[34.646035038685206,51.280229607138104,0],[34.653361672300406,51.27698931589013,0],[34.658354984165804,51.27488738008186,0],[34.66625700618094,51.27172907801295,0],[34.6689623124754,51.270240789152815,0],[34.669369722564966,51.27005109784032,0],[34.6703479630761,51.26959562259787,0],[34.67096797634477,51.2693069332306,0],[34.67111403717342,51.26925376193025,0],[34.672184168852056,51.26886420397451,0],[34.67353335581661,51.2683730536303,0],[34.67609874595629,51.26784773724604,0],[34.678804064233866,51.267497518180996,0],[34.6809030197053,51.26732240524438,0],[34.683048619929856,51.26708892250982,0],[34.684447918081126,51.266534409856085,0],[34.68542742514029,51.26568803955831,0],[34.684821048055454,51.26452061524931,0],[34.68462078440593,51.263778829464584,0],[34.684529069241016,51.26346319029358,0],[34.684427605212,51.263114004809445,0],[34.68440344916634,51.26228295738467,0],[34.68466905746662,51.26139145489919,0],[34.684686291405924,51.26010711381575,0],[34.68469318315591,51.25959328633246,0],[34.684041203529176,51.25796127730422,0],[34.68273725530232,51.25623854029397,0],[34.67996033974684,51.253654318052725,0],[34.67619338991572,51.250495625604884,0],[34.673549153409624,51.24824357943742,0],[34.67090518154225,51.2459914710187,0],[34.67051277063343,51.24564093451875,0],[34.67025218261096,51.24540815196832,0],[34.6692304219623,51.24449538171976,0],[34.668587060004626,51.243920621491384,0],[34.667041647346444,51.24272643931797,0],[34.6664621124244,51.24197060961045,0],[34.66463953572281,51.23816596129285,0],[34.66451895255915,51.23791422643531,0],[34.664373165403155,51.23776688989346,0],[34.66414969716808,51.23995954829782,0],[34.66383765339405,51.24286675921208,0],[34.6635370442318,51.24530388958603,0],[34.66341251560673,51.246055145956724,0],[34.66277170242447,51.24694460156427,0],[34.662486395560215,51.24713549872182,0],[34.66076334234062,51.247284017590886,0],[34.66031685159104,51.24732250335733,0],[34.65998844888184,51.24725368436998,0],[34.6592288841944,51.24709451351551,0],[34.658514007803475,51.24689841671226,0],[34.658156917544325,51.24680046285121,0],[34.657737929215045,51.24668553043766,0],[34.6558049148524,51.24692274464034,0],[34.65232710556676,51.24734953276856,0],[34.65027359203058,51.24767989035983,0],[34.64956719897334,51.24779353103451,0],[34.64651930396361,51.248523523345305,0],[34.645650944294985,51.24878458156908,0],[34.64524534625516,51.24890651750826,0],[34.64439337573347,51.24905251641139,0],[34.6431154166185,51.249245516593405,0],[34.64193445644434,51.24939151673437,0],[34.640651498549275,51.24949151898332,0],[34.63987652453635,51.24949152233052,0],[34.639158548656994,51.249590521795085,0],[34.638069585734634,51.25004351360429,0],[34.63699362368733,51.250469506184835,0],[34.636491642499095,51.25057750570438,0],[34.63588866253131,51.250595507530846,0],[34.63494068996985,51.25044251476424,0],[34.6343377084671,51.25041551799535,0],[34.633389739733325,51.25052451797094,0],[34.63136873027551,51.250854413024044,0],[34.630705992593036,51.25087554550127,0],[34.629943891331486,51.250767195770145,0],[34.62759993202732,51.250419128994224,0],[34.62726814473108,51.25041779373891,0],[34.626928144046104,51.25045226222074,0],[34.62570055679203,51.25058233840045,0],[34.624397173691,51.25071345316813,0],[34.62404622967268,51.250706427107424,0],[34.623701825884226,51.25061603333597,0],[34.62191838220699,51.25003403831067,0],[34.62142408461466,51.24999330160012,0],[34.62088513751313,51.250030508981474,0],[34.61837985987782,51.25021388674724,0],[34.613756562527605,51.250610690410554,0],[34.61252840490752,51.2507345923224,0],[34.611221447442595,51.25085159427168,0],[34.60856554668539,51.25222556719583,0],[34.607799302912035,51.25257220722776,0],[34.6075838776415,51.252669663149106,0],[34.60722159580006,51.252833556595846,0],[34.6056586511681,51.25365653910435,0],[34.60449385531829,51.254319697342616,0],[34.60404121916057,51.25412065633493,0],[34.60376771823161,51.25399453766758,0],[34.60356046526489,51.253906321145905,0],[34.603034737434434,51.25368254852766,0],[34.60220275588712,51.25313156695179,0],[34.60184276431849,51.25269858099892,0],[34.60160776832296,51.252197592909184,0],[34.60148176429256,51.25149961404622,0],[34.60154075327499,51.2504976397663,0],[34.60250715597747,51.24750117631503,0],[34.60268468400315,51.24695073260987,0],[34.60102598150913,51.24608556701184,0],[34.60047254285679,51.24581149179925,0],[34.59847079952369,51.245122799411895,0],[34.597471825139685,51.244680815335386,0],[34.596320293517536,51.244110281687476,0],[34.5951969976709,51.24369137605047,0],[34.59461940151509,51.24343157488877,0],[34.59443806785501,51.243322595355366,0],[34.59406476993957,51.24304089634537,0],[34.593396402923645,51.24245754996328,0],[34.592445015425334,51.24174600243569,0],[34.59105078846995,51.24072283064884,0],[34.588999696311795,51.239280288854665,0],[34.58771310097474,51.238241340324635,0],[34.58641965355248,51.237166781384055,0],[34.58583977517263,51.23667141728198,0],[34.58547653953087,51.2363587025454,0],[34.58503228276807,51.23600425604418,0],[34.58470744278883,51.23581593102285,0],[34.58397686955581,51.235401116948104,0],[34.582559668682954,51.23449801320412,0],[34.581506144471,51.23381908560933,0],[34.581275431786445,51.233722272277916,0],[34.580863702190356,51.23365169770307,0],[34.58034916412646,51.23367768171228,0],[34.57966305950708,51.23385319341365,0],[34.578342638899606,51.234404278113146,0],[34.575912030670295,51.235504060438636,0],[34.57474446575626,51.23600713870414,0],[34.57280065358277,51.236849322072814,0],[34.57170190460946,51.23732537576338,0],[34.571591971597144,51.237992822973354,0]]]},"properties":{"GlobalID":"{0ACA6362-E055-40FE-9A2A-9D8FFD2C03F3}","Creator":"qdeutschendorf_understandingwar","EditDate":"2025-09-17T00:00:00.000Z","Editor":"bcordola_understandingwar","Shape__Are":40938428.7485,"Shape__Len":51321.2168027,"CreationDa":"2025-05-28T00:00:00.000Z"}},{"type":"Feature","geometry":{"bbox":[35.28872890332922,51.05348516666538,35.442390911566754,51.068110316489594],"type":"Polygon","coordinates":[[[35.407893198192205,51.0357336768742,0],[35.407451301452944,51.034085112726174,0],[35.40783537167775,51.032466348340854,0],[35.40904497838696,51.03063792783046,0],[35.409943128813104,51.03006306954202,0],[35.410707022583445,51.029574126580165,0],[35.41120451357218,51.02925569853307,0],[35.412741045464415,51.02870618991249,0],[35.41420225961311,51.02832740618925,0],[35.414648735289866,51.02821166169942,0],[35.41712311245158,51.02782777586774,0],[35.418403812201845,51.027403908194884,0],[35.41429247831647,51.02683032184052,0],[35.41369220076371,51.02674657541941,0],[35.41263664491388,51.026742553529374,0],[35.40976001759496,51.02673159095414,0],[35.40955281634293,51.02670388872093,0],[35.40938097904865,51.02695204606052,0],[35.408639527783215,51.02820772295657,0],[35.40840665914401,51.02862896079846,0],[35.40825384938318,51.0287748894287,0],[35.408097650310054,51.028855448551816,0],[35.40786922980327,51.02890774945866,0],[35.407576627950085,51.02890485821477,0],[35.40611765625215,51.028786195743535,0],[35.40530382014396,51.02873751971328,0],[35.40471067733389,51.02866942083266,0],[35.40436076516128,51.0286528274468,0],[35.40416957518537,51.02869543298843,0],[35.404083280309315,51.02875967443804,0],[35.40356569221754,51.03024272418156,0],[35.403468441832146,51.0305511017126,0],[35.40338507191943,51.030945455831855,0],[35.403316889449705,51.03111009660496,0],[35.40321340301977,51.031164940185164,0],[35.400117157818265,51.031492330682624,0],[35.40042759343337,51.033340093287,0],[35.40062611668547,51.03343184205998,0],[35.40088569650869,51.03344133218606,0],[35.401174464081635,51.03344253544408,0],[35.40145284627447,51.033461798678445,0],[35.401709529459225,51.03349935324459,0],[35.40202534270603,51.033585664930946,0],[35.40261646963508,51.03374127055432,0],[35.403386591811554,51.033964578653226,0],[35.40371046728077,51.03409712305274,0],[35.403920506674346,51.03421773139318,0],[35.404019744546424,51.034348647864064,0],[35.4041261747717,51.036989965050395,0],[35.40419441635919,51.03868346089495,0],[35.40604313794613,51.03875280762149,0],[35.40798868444694,51.03882575120291,0],[35.40887568377608,51.0388590060281,0],[35.4096334159552,51.03888741304211,0],[35.4081919615378,51.04224147871078,0],[35.40610092523931,51.042392959185655,0],[35.40604118667176,51.042551245687264,0],[35.405983919664024,51.042866536851214,0],[35.40584783150293,51.04373671236813,0],[35.40579285405373,51.04420544191778,0],[35.40579491933981,51.0445730506242,0],[35.40602800340963,51.046184473958284,0],[35.40638629811108,51.047909123220826,0],[35.399611734230945,51.051594120720246,0],[35.39905164676866,51.05189712797408,0],[35.398460194986754,51.05214128531097,0],[35.39814791450772,51.05230832134932,0],[35.397610044776734,51.05267630593791,0],[35.39701927646875,51.0531167596516,0],[35.39599585339336,51.05395277500294,0],[35.39527348006092,51.05467221936824,0],[35.39511924163662,51.05464178235588,0],[35.39354423173565,51.05421003760859,0],[35.39187492954506,51.05368799346771,0],[35.39095290486257,51.05337967176502,0],[35.39037951742002,51.05324267965181,0],[35.39004552541747,51.05317217515263,0],[35.38974181005182,51.05313972107267,0],[35.38927492673619,51.05314629732707,0],[35.3886628134938,51.053173687264405,0],[35.387283310755215,51.05323758019628,0],[35.38714781257316,51.05326414405681,0],[35.38708517455629,51.05333086473661,0],[35.38701320251423,51.05346746941966,0],[35.385914274158885,51.05515734283203,0],[35.38550924371259,51.05572482433028,0],[35.38490864787116,51.056436099089716,0],[35.38412084698975,51.057362381282694,0],[35.382411922488274,51.05928606131933,0],[35.38055031664158,51.06136452801274,0],[35.37950299867109,51.06229606399262,0],[35.37788770207615,51.06402739845334,0],[35.37547442708949,51.0668636085582,0],[35.373319600967484,51.065714624198606,0],[35.37313203635555,51.06564704635099,0],[35.372998322106234,51.065617042800824,0],[35.372796001961795,51.06563007507131,0],[35.37254880006016,51.065688635952505,0],[35.37182971153215,51.0658430401348,0],[35.37130533834028,51.065928046585476,0],[35.370737458599834,51.065993113202026,0],[35.36992329221583,51.06604234922467,0],[35.36911048881842,51.06611832371618,0],[35.3688558337155,51.06612348831232,0],[35.368325080400844,51.06608368248794,0],[35.36806525510174,51.06608002554172,0],[35.367803442003975,51.066129948777,0],[35.36755151746854,51.06618859610203,0],[35.3674076013456,51.06623613005918,0],[35.36732407970403,51.06626459355151,0],[35.36720131687136,51.066264106262146,0],[35.36710578535963,51.06624224597595,0],[35.366990483252714,51.066202938322185,0],[35.36673934528825,51.066092019157864,0],[35.36598150994444,51.065857510916885,0],[35.36544271149962,51.06575241683145,0],[35.3650122096077,51.065734360834185,0],[35.36468893893431,51.06578254774767,0],[35.36438650061991,51.06586897953948,0],[35.3641357839152,51.06595139158603,0],[35.363886904134155,51.06597724918261,0],[35.363538386369704,51.06599322251862,0],[35.36306665006357,51.06599979133989,0],[35.362644192670516,51.06604700353722,0],[35.36239074702322,51.066075923461014,0],[35.36194470733355,51.066123610852394,0],[35.3615770205903,51.06613401845041,0],[35.36125573716088,51.06612861486431,0],[35.36098511855122,51.066098390213014,0],[35.36077991655756,51.06605494484968,0],[35.36054551221641,51.06599424088929,0],[35.360091307899246,51.065881462843365,0],[35.35954230444711,51.065681496736026,0],[35.35882983004603,51.06555999346591,0],[35.35843043797769,51.065503806328664,0],[35.35817944916757,51.06546961026986,0],[35.35779943209456,51.065348781061,0],[35.35747089177101,51.06523762096413,0],[35.35720935339442,51.06510726169553,0],[35.356879408939555,51.06485692091308,0],[35.356454396692186,51.06451926145662,0],[35.35596207459295,51.064083016389546,0],[35.35536206303019,51.063645368918834,0],[35.35480764702781,51.06332459067991,0],[35.352550311178746,51.06244371110324,0],[35.35121582375934,51.062042248006534,0],[35.34894821440426,51.06267399283162,0],[35.34586583598165,51.06354523401645,0],[35.34586548951176,51.06354533717352,0],[35.34122480408293,51.06552226695568,0],[35.329358020339555,51.070595690125124,0],[35.326443700604,51.073937590079986,0],[35.328087080917555,51.07597509042364,0],[35.31346826590074,51.076885914458494,0],[35.31291719002634,51.07802912758681,0],[35.312257559003704,51.078078293170535,0],[35.30996324765014,51.078173396571856,0],[35.30854699092748,51.078284918272175,0],[35.3071440743195,51.07833166482241,0],[35.30652516635749,51.078343883660885,0],[35.305316121059604,51.078339189155436,0],[35.30516214600245,51.07832346531202,0],[35.30408510071158,51.079683187185246,0],[35.30666129235481,51.08121611533692,0],[35.306902168488804,51.08135943761326,0],[35.30750586836382,51.081718652866755,0],[35.31070395737276,51.08362152735557,0],[35.31372441988007,51.08520531988911,0],[35.31470663456507,51.085728061747126,0],[35.31518564438662,51.08590617454577,0],[35.31575734569473,51.08603713570979,0],[35.316510019582154,51.086100143047894,0],[35.317648138212384,51.086165008517845,0],[35.31841222503601,51.086162174616426,0],[35.319627002450304,51.08609360218255,0],[35.321350327156466,51.08593361929092,0],[35.32280702795404,51.085717782678735,0],[35.32610140906126,51.08510616740258,0],[35.32864685491456,51.084551902148185,0],[35.330505424383354,51.084054467513084,0],[35.331307738006764,51.083788019584986,0],[35.334604453933565,51.0822174851775,0],[35.33505386570165,51.08195400957339,0],[35.3418390390759,51.076195923849866,0],[35.34197049417658,51.076084359222605,0],[35.344252923631785,51.07480771785522,0],[35.345742848148895,51.074025660537785,0],[35.34720878737181,51.073474963870474,0],[35.349528229579796,51.0729612592025,0],[35.35208030719782,51.07244401028875,0],[35.35300817545957,51.07235856186886,0],[35.35467442290298,51.072397785311225,0],[35.364640126277386,51.07416546931186,0],[35.370886594754985,51.0748340839477,0],[35.375876555661044,51.07563904283767,0],[35.37868312456087,51.07620726924976,0],[35.38562535282775,51.07683093943697,0],[35.38893107302769,51.076945996124884,0],[35.39542283368257,51.07679205652662,0],[35.40183688070404,51.07631229548035,0],[35.40696239398218,51.07598244887491,0],[35.4069658993041,51.075982035788854,0],[35.41007171655141,51.075042144576365,0],[35.41215713765838,51.07413338416639,0],[35.41349449520081,51.07296566158868,0],[35.414780718922216,51.071322472290404,0],[35.41565680030858,51.06928513824986,0],[35.4164448075575,51.06745253931004,0],[35.41753617257667,51.06367161397412,0],[35.41787742642928,51.06266596326972,0],[35.41762374275874,51.06056823173436,0],[35.41682367328834,51.05969968694672,0],[35.416096329765345,51.058328266330314,0],[35.41573264985205,51.05645392580443,0],[35.4157326271461,51.054030880670865,0],[35.41485973618496,51.04351431841509,0],[35.414622016592205,51.04115297522655,0],[35.41358349536757,51.039093666621454,0],[35.41278891359769,51.03809442046302,0],[35.41158423267695,51.03738526674517,0],[35.409347357267066,51.03680983774556,0],[35.40869900449132,51.036492999369486,0],[35.408367517206024,51.03623029511036,0],[35.407893198192205,51.0357336768742,0]]]},"properties":{"GlobalID":"{69FF0027-121C-4F51-BB8C-4EDDD2369CEA}","Creator":"hhurwitz_understandingwar","EditDate":"2026-06-30T00:00:00.000Z","Editor":"lhiguchi_understandingwar","Shape__Are":13444911.3028,"Shape__Len":28323.818511,"CreationDa":"2025-06-15T00:00:00.000Z"}},{"type":"Feature","geometry":{"bbox":[35.16981843347124,51.11941681012665,35.174599095720545,51.121039651596774],"type":"Polygon","coordinates":[[[35.16981843347124,51.11941681012665,0],[35.174599095720545,51.121039651596774,0],[35.1714054365424,51.11995553570597,0],[35.16981843347124,51.11941681012665,0]]]},"properties":{"GlobalID":"{F9B5EAEB-89BB-48B7-BC25-B9781980477B}","Creator":"smcree_understandingwar","EditDate":"2026-05-20T00:00:00.000Z","Editor":"smcree_understandingwar","Shape__Are":0.600624386863,"Shape__Len":755.350141046,"CreationDa":"2026-05-20T00:00:00.000Z"}},{"type":"Feature","geometry":{"bbox":[35.172508944379544,51.100407387778034,35.17379069486988,51.10053045917909],"type":"Polygon","coordinates":[[[35.173581399607386,51.100171789815946,0],[35.17298225839435,51.100571979467,0],[35.17271823217726,51.10076605894963,0],[35.173581399607386,51.100171789815946,0]]]},"properties":{"GlobalID":"{EC828A2C-91DF-4323-A677-283AF7992047}","Creator":"smcree_understandingwar","EditDate":"2026-05-20T00:00:00.000Z","Editor":"smcree_understandingwar","Shape__Are":41.3912335649,"Shape__Len":179.444225618,"CreationDa":"2026-05-20T00:00:00.000Z"}},{"type":"Feature","geometry":{"bbox":[35.173502709399735,51.10003693677519,35.17438683917155,51.099994842109396],"type":"Polygon","coordinates":[[[35.174308146856134,51.09985998957937,0],[35.173974500121034,51.09997173323359,0],[35.173581399607386,51.100171789815946,0],[35.174308146856134,51.09985998957937,0]]]},"properties":{"GlobalID":"{CA01DBE4-008F-4353-8EB8-A15C319DEE58}","Creator":"smcree_understandingwar","EditDate":"2026-05-20T00:00:00.000Z","Editor":"smcree_understandingwar","Shape__Are":88.9300499373,"Shape__Len":122.92296777,"CreationDa":"2026-05-20T00:00:00.000Z"}},{"type":"Feature","geometry":{"bbox":[35.163222737858575,51.10806097465943,35.164489978791266,51.108302274878845],"type":"Polygon","coordinates":[[[35.16422129961186,51.107841736536194,0],[35.1638079795232,51.10821821117287,0],[35.16364247341289,51.10831645630495,0],[35.16349140811083,51.10852151516353,0],[35.16422129961186,51.107841736536194,0]]]},"properties":{"GlobalID":"{C9534336-83B9-4A4A-8380-2613BD0CA8EB}","Creator":"smcree_understandingwar","EditDate":"2026-05-20T00:00:00.000Z","Editor":"smcree_understandingwar","Shape__Are":98.4885897817,"Shape__Len":184.175297105,"CreationDa":"2026-05-20T00:00:00.000Z"}},{"type":"Feature","geometry":{"bbox":[35.18541497942036,51.11172195096138,35.18807910601178,51.112042441111285],"type":"Polygon","coordinates":[[[35.18761018575674,51.11123955129021,0],[35.18717840180685,51.11154651541172,0],[35.186584539352985,51.111967368479725,0],[35.185883865468206,51.11252484907521,0],[35.18761018575674,51.11123955129021,0]]]},"properties":{"GlobalID":"{51E3F41C-B63A-4FD3-B64C-8E705E851A29}","Creator":"smcree_understandingwar","EditDate":"2026-05-20T00:00:00.000Z","Editor":"smcree_understandingwar","Shape__Are":238.658866821,"Shape__Len":375.44130341,"CreationDa":"2026-05-20T00:00:00.000Z"}},{"type":"Feature","geometry":{"bbox":[35.16444005250586,51.11244205542001,35.165416605247856,51.113838609964006],"type":"Polygon","coordinates":[[[35.16444005250586,51.11244205542001,0],[35.164624183184166,51.11274203092758,0],[35.165080495447775,51.11340579371281,0],[35.165416605247856,51.113838609964006,0],[35.16444005250586,51.11244205542001,0]]]},"properties":{"GlobalID":"{D91565FB-ABDB-4860-AA79-C98DD20BBC76}","Creator":"smcree_understandingwar","EditDate":"2026-05-20T00:00:00.000Z","Editor":"smcree_understandingwar","Shape__Are":239.096940716,"Shape__Len":342.599296195,"CreationDa":"2026-05-20T00:00:00.000Z"}},{"type":"Feature","geometry":{"bbox":[35.16947821416895,51.10147775578587,35.173631301997396,51.1023307781339],"type":"Polygon","coordinates":[[[35.17271823217726,51.10076605894963,0],[35.17162621513346,51.101795564104364,0],[35.170391185597566,51.10304249880493,0],[35.17271823217726,51.10076605894963,0]]]},"properties":{"GlobalID":"{F988B65A-5AA7-4A39-B061-9D424E2A10F4}","Creator":"smcree_understandingwar","EditDate":"2026-05-20T00:00:00.000Z","Editor":"smcree_understandingwar","Shape__Are":351.792663048,"Shape__Len":605.713807396,"CreationDa":"2026-05-20T00:00:00.000Z"}},{"type":"Feature","geometry":{"bbox":[35.16879767232086,51.10049563522375,35.170391185597566,51.10304249880493],"type":"Polygon","coordinates":[[[35.16879767232086,51.10049563522375,0],[35.170391185597566,51.10304249880493,0],[35.16888638656898,51.1005742963065,0],[35.16879767232086,51.10049563522375,0]]]},"properties":{"GlobalID":"{6A871FD1-6F1A-465E-B619-9DDCBB0E45B9}","Creator":"smcree_understandingwar","EditDate":"2026-05-20T00:00:00.000Z","Editor":"smcree_understandingwar","Shape__Are":392.006448717,"Shape__Len":615.223544085,"CreationDa":"2026-05-20T00:00:00.000Z"}},{"type":"Feature","geometry":{"bbox":[35.16295949593306,51.109904369262345,35.165292461875296,51.11225491542896],"type":"Polygon","coordinates":[[[35.163811863310045,51.10971723943869,0],[35.164060406173625,51.11099162700476,0],[35.164251197203534,51.11183877180768,0],[35.16444005250586,51.11244205542001,0],[35.163811863310045,51.10971723943869,0]]]},"properties":{"GlobalID":"{DB3B0B62-60F1-4FE0-BFB8-02EEA336DE5D}","Creator":"smcree_understandingwar","EditDate":"2026-05-20T00:00:00.000Z","Editor":"smcree_understandingwar","Shape__Are":655.165915014,"Shape__Len":620.404163065,"CreationDa":"2026-05-20T00:00:00.000Z"}},{"type":"Feature","geometry":{"bbox":[35.136677302412295,51.06247630761001,35.238483082789536,51.072827664413694],"type":"Polygon","coordinates":[[[35.21342293452098,51.04559726566308,0],[35.21209072244346,51.046253776762086,0],[35.21142001125862,51.04643780307434,0],[35.20999996607477,51.04662289207927,0],[35.209363044156234,51.047476136071,0],[35.20903736287147,51.04761062771516,0],[35.20888181418604,51.047674863056024,0],[35.20873694351967,51.04769571565924,0],[35.208621855365166,51.04771228211385,0],[35.20851432296515,51.04772776000654,0],[35.20632868619157,51.047650080252915,0],[35.206288034411585,51.04771482534726,0],[35.20626152680289,51.047757045394874,0],[35.20580363978829,51.048486304438796,0],[35.204494965819954,51.05057050620401,0],[35.204438346561844,51.05066067421652,0],[35.20419606305544,51.051046512272016,0],[35.201030075992634,51.05213911340618,0],[35.198042319017844,51.04944596747127,0],[35.19657118842737,51.05036319690338,0],[35.196979548615495,51.050811715265425,0],[35.197487111752594,51.05136917703586,0],[35.189706713879225,51.053235897428834,0],[35.18985266194218,51.055152698346454,0],[35.18994499537865,51.056365294426435,0],[35.189364921658296,51.05655463158665,0],[35.18893331186976,51.05676973989762,0],[35.188292576665965,51.05724965826338,0],[35.188292424586685,51.057249786928026,0],[35.186775077800654,51.05856439883874,0],[35.1829842076486,51.06172616743206,0],[35.182983861686566,51.061726458435295,0],[35.1829745693385,51.06175577425885,0],[35.18290495464593,51.06197542584321,0],[35.18309242861955,51.062428772238846,0],[35.18319773613619,51.062740878180854,0],[35.18319774677404,51.06274090694502,0],[35.17934968194129,51.06728818341521,0],[35.17916122197527,51.06757458098568,0],[35.17912711598951,51.067626411009144,0],[35.17786182432546,51.0695491363977,0],[35.17755498230427,51.070015397461816,0],[35.177362654918,51.070307646322235,0],[35.17735203822315,51.07032377724081,0],[35.177284787447455,51.07042596642483,0],[35.176913248758936,51.070597077194805,0],[35.17656217162322,51.07072140526392,0],[35.17588396559982,51.070876808391276,0],[35.175467286895056,51.07099164541776,0],[35.175050608396496,51.07110648234852,0],[35.174604465668274,51.071257559166945,0],[35.17419328713635,51.07142939850047,0],[35.17374615819045,51.0716804295496,0],[35.17327855641027,51.07197824061208,0],[35.172885203939686,51.0722889479656,0],[35.1727137990877,51.07248016443706,0],[35.17243293758622,51.07279349012139,0],[35.17214752426577,51.073338256850356,0],[35.172144247234485,51.073344512427084,0],[35.17214053978035,51.073351588333026,0],[35.1720448647304,51.07353420207815,0],[35.17177765234097,51.07404421896573,0],[35.17165480303044,51.074203550659504,0],[35.17119417491418,51.074651135028006,0],[35.17108412994924,51.074720996897945,0],[35.17097408551589,51.07479085752763,0],[35.17073317406261,51.07484887320667,0],[35.170564851368006,51.074884123875655,0],[35.17037581424106,51.074936912484354,0],[35.17034811804953,51.07494464618914,0],[35.17032263971409,51.074951760488815,0],[35.17016776859398,51.07499500846488,0],[35.16990585581295,51.0750951964727,0],[35.16975587276402,51.075152567839716,0],[35.16960054213945,51.07520607099537,0],[35.16944919507086,51.07525820263951,0],[35.16921329262182,51.07529250620552,0],[35.16902712882559,51.075319577403405,0],[35.168657511708844,51.07541210100946,0],[35.168374141661886,51.07553157806467,0],[35.168076787028,51.07571555950194,0],[35.16725647574483,51.076348266323485,0],[35.166624788383714,51.076895374940364,0],[35.16646445224677,51.077101797718505,0],[35.16623951584176,51.07750216004984,0],[35.16616075639147,51.07763570253401,0],[35.16611597733173,51.07788993223327,0],[35.16591753594973,51.078614531858854,0],[35.16591751591179,51.07861461071588,0],[35.165470447852336,51.07955686165023,0],[35.16543964617931,51.079706153048605,0],[35.16553983278739,51.079829221406435,0],[35.166516054449524,51.080311732104455,0],[35.16656834492356,51.08042685198719,0],[35.16646586257387,51.08053584387301,0],[35.166438111687896,51.08056535762023,0],[35.16590931742042,51.081127733260445,0],[35.16436813384034,51.08276674608122,0],[35.164343868030954,51.08279255072727,0],[35.16406345350786,51.08309074948802,0],[35.15968861911916,51.080721856365685,0],[35.158616032235045,51.08163529076537,0],[35.157552103525745,51.08126639546484,0],[35.15655103068467,51.08091928381748,0],[35.15507592443148,51.080407788574,0],[35.155075856990486,51.08040783354184,0],[35.154393287034516,51.080880834841786,0],[35.154258649565556,51.08097413440057,0],[35.15404567961291,51.081121714240595,0],[35.15328145076267,51.08165128187801,0],[35.15275833949942,51.081915719238424,0],[35.15245095371714,51.0820711010295,0],[35.151371783389415,51.08242410721377,0],[35.15079562216114,51.08253690898384,0],[35.150758993847596,51.08255161001247,0],[35.15070627750483,51.082572768473014,0],[35.15066201555445,51.082570043344205,0],[35.15063490355166,51.08256837401915,0],[35.150566869388655,51.08258169343228,0],[35.14988854781265,51.082617969808354,0],[35.14882780682522,51.08255419864407,0],[35.14832211380379,51.08247172035837,0],[35.15079175351242,51.08514143703541,0],[35.15080846503594,51.08515817632935,0],[35.15157939388442,51.08597681847495,0],[35.15230476285014,51.086776837093566,0],[35.15230478475112,51.086776861499175,0],[35.15340269709133,51.087963500838114,0],[35.15340298229512,51.08796380575289,0],[35.15415674884184,51.08875620953632,0],[35.15508853246195,51.08978126293857,0],[35.15508856312047,51.089781289191045,0],[35.1557501815371,51.09035918022062,0],[35.15624136710628,51.0905214462129,0],[35.15648143418588,51.09048370127286,0],[35.15885387172974,51.08998778851915,0],[35.16195463629066,51.08939269466273,0],[35.16595776984213,51.08854284302495,0],[35.16946292037428,51.08787342397921,0],[35.173845052484964,51.08705434088382,0],[35.178570089682566,51.08407403227757,0],[35.18799875689415,51.07691548480591,0],[35.191632896594705,51.07375986793501,0],[35.19502970062963,51.070553821976794,0],[35.19693905022089,51.06853401874771,0],[35.19958628462662,51.0658895651431,0],[35.19923079839112,51.06570589505311,0],[35.197501615700666,51.06487721869572,0],[35.19669189679374,51.06413477592267,0],[35.196581780256274,51.06333645749996,0],[35.19671057519992,51.0628090883201,0],[35.197346619142465,51.06216210652767,0],[35.198635708594324,51.06125202657618,0],[35.200979322872875,51.059620473694316,0],[35.202581125424274,51.058297149404524,0],[35.203204503767964,51.05772583101374,0],[35.20476469272568,51.05592342787463,0],[35.20483895017621,51.05575468311494,0],[35.20579272405767,51.05456398412722,0],[35.20668485523539,51.05374192232454,0],[35.20749854752905,51.05338905762346,0],[35.20833299905897,51.05310221850779,0],[35.20905522866755,51.05291673968296,0],[35.209063507914564,51.05291269323841,0],[35.209078671189125,51.052910717391825,0],[35.210388511595255,51.05274019519564,0],[35.2111184182202,51.05267339752007,0],[35.21142699005842,51.052645154423566,0],[35.21289427632985,51.052631145271725,0],[35.21289469086564,51.052631184984264,0],[35.21289533879833,51.05263117233664,0],[35.21997522891679,51.0526174767276,0],[35.222277179953885,51.05261302198834,0],[35.22412350862256,51.05249212962216,0],[35.22412460660758,51.05249205448468,0],[35.22649816921878,51.052323080317514,0],[35.226402140229226,51.05224726633739,0],[35.22583293224011,51.052186725522084,0],[35.22445219435157,51.05212973952187,0],[35.22353092207184,51.05220676654342,0],[35.223059429916205,51.05221573902987,0],[35.222825145592026,51.05205362844305,0],[35.22270231044779,51.05185370260737,0],[35.22264295812893,51.05140271578132,0],[35.22261904930784,51.05090346318784,0],[35.22254311777864,51.05050038287385,0],[35.222401430703556,51.05030081532902,0],[35.222131714688636,51.05018696810156,0],[35.22184769444658,51.050168574042786,0],[35.221664796643935,51.05029103062815,0],[35.21342293452098,51.04559726566308,0]]]},"properties":{"GlobalID":"{2FED2587-4820-4192-935B-3EBE215406A8}","Creator":"smcree_understandingwar","EditDate":"2026-07-07T00:00:00.000Z","Editor":"lhiguchi_understandingwar","Shape__Are":6238204.1598,"Shape__Len":17649.8609484,"CreationDa":"2026-05-20T00:00:00.000Z"}},{"type":"Feature","geometry":{"bbox":[35.34576790278134,51.06337849890081,35.34904615786337,51.06284072543676],"type":"Polygon","coordinates":[[[35.34894821440426,51.06267399283162,0],[35.346207629429905,51.06343741645297,0],[35.34586583598165,51.06354523401645,0],[35.34894821440426,51.06267399283162,0]]]},"properties":{"GlobalID":"{04823BE6-F8EC-4988-9F75-BA40F58B88AC}","Creator":"lhiguchi_understandingwar","EditDate":"2026-06-30T00:00:00.000Z","Editor":"lhiguchi_understandingwar","Shape__Are":134.802192752,"Shape__Len":469.694773547,"CreationDa":"2026-06-30T00:00:00.000Z"}},{"type":"Feature","geometry":{"bbox":[35.15063490355166,51.08256837401915,35.15080401361126,51.082551309517335],"type":"Polygon","coordinates":[[[35.15063490355166,51.08256837401915,0],[35.15070627750483,51.082572768473014,0],[35.15079562216114,51.08253690898384,0],[35.15063490355166,51.08256837401915,0]]]},"properties":{"GlobalID":"{11825B63-AB31-4B62-ADB6-423910470497}","Creator":"lhiguchi_understandingwar","EditDate":"2026-06-30T00:00:00.000Z","Editor":"lhiguchi_understandingwar","Shape__Are":11.5072267204,"Shape__Len":24.0166347788,"CreationDa":"2026-06-30T00:00:00.000Z"}},{"type":"Feature","geometry":{"bbox":[35.15508856312047,51.089781289191045,35.15575018056304,51.09035917854965],"type":"Polygon","coordinates":[[[35.15508856312047,51.089781289191045,0],[35.15556167450131,51.09020560888183,0],[35.15575018056304,51.09035917854965,0],[35.15508856312047,51.089781289191045,0]]]},"properties":{"GlobalID":"{1EA3637D-5DE7-43D9-8BE1-9C00B30CCACC}","Creator":"lhiguchi_understandingwar","EditDate":"2026-06-30T00:00:00.000Z","Editor":"lhiguchi_understandingwar","Shape__Are":28.5682010298,"Shape__Len":159.209639747,"CreationDa":"2026-06-30T00:00:00.000Z"}},{"type":"Feature","geometry":{"bbox":[35.15230478475112,51.086776861499175,35.15340269573007,51.08796350113697],"type":"Polygon","coordinates":[[[35.15230478475112,51.086776861499175,0],[35.15293328935541,51.087470019416344,0],[35.15340269573007,51.08796350113697,0],[35.15230478475112,51.086776861499175,0]]]},"properties":{"GlobalID":"{1DFF08E7-40A3-4885-8BCD-B6D5280027D9}","Creator":"lhiguchi_understandingwar","EditDate":"2026-06-30T00:00:00.000Z","Editor":"lhiguchi_understandingwar","Shape__Are":59.2726630344,"Shape__Len":307.588498432,"CreationDa":"2026-06-30T00:00:00.000Z"}},{"type":"Feature","geometry":{"bbox":[35.15575018056304,51.09035917854965,35.15624136107416,51.09052144376781],"type":"Polygon","coordinates":[[[35.15575018056304,51.09035917854965,0],[35.1559053922296,51.090446739625754,0],[35.1560588335711,51.09049625810957,0],[35.15624136107416,51.09052144376781,0],[35.15575018056304,51.09035917854965,0]]]},"properties":{"GlobalID":"{E66DFFF4-B0C7-4228-8885-A20FE34CC89B}","Creator":"lhiguchi_understandingwar","EditDate":"2026-06-30T00:00:00.000Z","Editor":"lhiguchi_understandingwar","Shape__Are":89.6265635318,"Shape__Len":78.0934711258,"CreationDa":"2026-06-30T00:00:00.000Z"}},{"type":"Feature","geometry":{"bbox":[35.208994315809875,51.04684443400348,35.21036870575332,51.04725458948678],"type":"Polygon","coordinates":[[[35.209999965587194,51.04662289124394,0],[35.20980634555475,51.04679671549793,0],[35.209595671247826,51.047129078566996,0],[35.209363043668674,51.04747613523573,0],[35.209999965587194,51.04662289124394,0]]]},"properties":{"GlobalID":"{70CA7F32-A078-4FE0-89FC-D1F1987D7CF6}","Creator":"lhiguchi_understandingwar","EditDate":"2026-06-30T00:00:00.000Z","Editor":"lhiguchi_understandingwar","Shape__Are":196.202095299,"Shape__Len":212.012811224,"CreationDa":"2026-06-30T00:00:00.000Z"}},{"type":"Feature","geometry":{"bbox":[35.20998860480063,51.04660342848348,35.21142001077103,51.046437802239026],"type":"Polygon","coordinates":[[[35.2102769182758,51.04653991159264,0],[35.209999965587194,51.04662289124394,0],[35.21142001077103,51.046437802239026,0],[35.21086730113618,51.04648395622493,0],[35.2102769182758,51.04653991159264,0]]]},"properties":{"GlobalID":"{AD50257D-0F9A-4C65-9C6D-C8DD685DF863}","Creator":"lhiguchi_understandingwar","EditDate":"2026-06-30T00:00:00.000Z","Editor":"lhiguchi_understandingwar","Shape__Are":274.073224053,"Shape__Len":201.809391457,"CreationDa":"2026-06-30T00:00:00.000Z"}},{"type":"Feature","geometry":{"bbox":[35.171205639051735,51.07306325959515,35.1730049732507,51.073774442163064],"type":"Polygon","coordinates":[[[35.17243293709906,51.072793489285964,0],[35.17213582108105,51.073223758634114,0],[35.17203979229813,51.073471826113305,0],[35.17177765185382,51.074044218130325,0],[35.17214053978035,51.073351588333026,0],[35.17214752426577,51.073338256850356,0],[35.17243293709906,51.072793489285964,0]]]},"properties":{"GlobalID":"{FC9E4363-2C07-4751-B72E-B56FB99E4CB8}","Creator":"lhiguchi_understandingwar","EditDate":"2026-06-30T00:00:00.000Z","Editor":"lhiguchi_understandingwar","Shape__Are":310.365818722,"Shape__Len":296.476799843,"CreationDa":"2026-06-30T00:00:00.000Z"}},{"type":"Feature","geometry":{"bbox":[35.14808871439656,51.082433652214284,35.1507917497168,51.08514143315679],"type":"Polygon","coordinates":[[[35.14808871439656,51.082433652214284,0],[35.15074903764689,51.08509864859087,0],[35.1507917497168,51.08514143315679,0],[35.14832211380379,51.08247172035837,0],[35.14808871439656,51.082433652214284,0]]]},"properties":{"GlobalID":"{C32788C6-E3F0-420A-BECA-9E853332F92B}","Creator":"lhiguchi_understandingwar","EditDate":"2026-06-30T00:00:00.000Z","Editor":"lhiguchi_understandingwar","Shape__Are":2062.48642434,"Shape__Len":720.585964325,"CreationDa":"2026-06-30T00:00:00.000Z"}},{"type":"Feature","geometry":{"bbox":[35.17743670264253,51.064007944103125,35.1851110818337,51.06602102865381],"type":"Polygon","coordinates":[[[35.18319773613619,51.062740878180854,0],[35.17934968194129,51.06728818341521,0],[35.18319774677404,51.06274090694502,0],[35.18319773613619,51.062740878180854,0]]]},"properties":{"GlobalID":"{20FA5059-E84F-448D-B7FA-7437819124D9}","Creator":"lhiguchi_understandingwar","EditDate":"2026-07-07T00:00:00.000Z","Editor":"lhiguchi_understandingwar","Shape__Are":0.620244629616,"Shape__Len":1155.04900505,"CreationDa":"2026-07-07T00:00:00.000Z"}},{"type":"Feature","geometry":{"bbox":[35.31181335535757,50.99150240857429,35.387720013232816,51.01155153278505],"type":"Polygon","coordinates":[[[35.33170201948362,51.0023688329411,0],[35.331599256642235,51.00263876548596,0],[35.33145965668094,51.00275847721029,0],[35.33129350829661,51.00301760063275,0],[35.331148580895146,51.003323891414944,0],[35.33091136416437,51.00385809184577,0],[35.330671276803656,51.00452322687703,0],[35.330271761175894,51.00539380772656,0],[35.33017857169793,51.005603884273164,0],[35.33009044670149,51.005914992164975,0],[35.32986757456991,51.00635966688269,0],[35.329684353259026,51.00665482544784,0],[35.329438467615624,51.00701667171798,0],[35.329116619940066,51.00736813501933,0],[35.32892337418646,51.00765159202594,0],[35.328673118240744,51.0081146578379,0],[35.32843555149924,51.00864290886835,0],[35.32822625872893,51.009014534330696,0],[35.32756843796971,51.009652548317725,0],[35.32553562704217,51.0111814327856,0],[35.32465510249213,51.01186525526781,0],[35.32422221379162,51.0122605574081,0],[35.32411718879026,51.01242327241499,0],[35.32415258091611,51.012565339935094,0],[35.32439851448361,51.0127686634857,0],[35.324417306009444,51.0127791505204,0],[35.32450823853273,51.01282988460221,0],[35.32485013303818,51.01302064150335,0],[35.32490298914452,51.01305013723767,0],[35.325014760051126,51.01308614250583,0],[35.32654344123671,51.0135786721707,0],[35.3267496405165,51.01329175459449,0],[35.326934628998906,51.013097997488266,0],[35.326937818172496,51.01309466762269,0],[35.327424143756815,51.01273100978547,0],[35.3283322564983,51.011939534031534,0],[35.32871954746001,51.011670057501895,0],[35.329145643630156,51.0113284053908,0],[35.329514024045324,51.011024799068345,0],[35.33030805241524,51.010684997646855,0],[35.33784809752156,51.00893161844969,0],[35.338352781560225,51.00880852001088,0],[35.357939229017376,51.00542804369146,0],[35.36088433943611,51.00561472642239,0],[35.3651711138312,51.00698167343644,0],[35.36866681782302,51.00870961425695,0],[35.374906121195366,51.00895138366523,0],[35.375588823938536,51.011447713987444,0],[35.375742281487355,51.01147303150172,0],[35.37828942896515,51.011893263520925,0],[35.38207668530682,51.01251808090999,0],[35.382818236968404,51.01264042175872,0],[35.383066270679706,51.01226116066273,0],[35.383226285883744,51.01202600640246,0],[35.38339038796702,51.01179191942402,0],[35.38363221896516,51.01145895033435,0],[35.38388232915722,51.01112830175181,0],[35.384129286034096,51.01081425030464,0],[35.38438372390717,51.01050246505831,0],[35.38466821271379,51.01016679844944,0],[35.384961386516096,51.009833969669366,0],[35.385222773134174,51.009547523365676,0],[35.38549061015931,51.009263339264926,0],[35.38576484570392,51.00898147229435,0],[35.386045426646774,51.00870197693202,0],[35.37386524846907,51.00078635637535,0],[35.35630629942232,50.99212635186806,0],[35.35065595414705,50.98933928000351,0],[35.34977392194118,50.98867815353544,0],[35.3492857805298,50.98824903644263,0],[35.3483965983271,50.98704672500239,0],[35.34823504915904,50.986775672279414,0],[35.34773437849321,50.986097416233,0],[35.34641998786012,50.984316765985895,0],[35.346025760296996,50.98391643255314,0],[35.34568066996629,50.98402329900685,0],[35.34511049118692,50.98505877909048,0],[35.344978339292695,50.98529877460654,0],[35.34414819059199,50.986806321471185,0],[35.34384832625017,50.987350861130246,0],[35.343651574697525,50.987708150116184,0],[35.34344872726542,50.98772292899267,0],[35.34312634239755,50.98772225909102,0],[35.34138761664335,50.987671473978644,0],[35.341257679713515,50.987674077326595,0],[35.341129911864186,50.98773829592368,0],[35.340967826850964,50.98769499985517,0],[35.33791301510002,50.98906435954434,0],[35.33527811129716,50.99036773410335,0],[35.33150074884625,50.992436391216074,0],[35.331850947059245,50.99347256111096,0],[35.32975503809839,50.99621359299472,0],[35.33346133113229,50.997410046914744,0],[35.33648107630509,50.99784134724542,0],[35.33690222990651,50.99790149748179,0],[35.33731549940636,50.998084456533675,0],[35.337586376446225,50.998221810454034,0],[35.33790912472853,50.99845331104957,0],[35.33805667274579,50.99857528846855,0],[35.33806025962466,50.99864660333485,0],[35.33790463124181,50.99873895449303,0],[35.33757453759146,50.99892403326668,0],[35.33712409770979,50.99915316487929,0],[35.33646569128084,50.9995589797205,0],[35.335840169330865,50.999868946140246,0],[35.33539149978812,51.000133727624295,0],[35.33455589686483,51.00057876395337,0],[35.333685291399284,51.00107803766765,0],[35.33290796076353,51.00155759607591,0],[35.332871479256,51.00158565163225,0],[35.33287144538343,51.001585672347794,0],[35.332871381774396,51.00158572606821,0],[35.33177761986244,51.002170213129375,0],[35.33170201948362,51.0023688329411,0]]]},"properties":{"GlobalID":"{03B1222E-281F-410E-881F-8FFA5906EF7D}","Creator":"jthompson_understandingwar","EditDate":"2026-07-23T00:00:00.000Z","Editor":"jthompson_understandingwar","Shape__Are":5841005.89061,"Shape__Len":13716.0430927,"CreationDa":"2026-07-23T00:00:00.000Z"}}],"fileName":"Kursk Incursion Russian Claims in Russia July 23, 2026"}