{"type":"FeatureCollection","features":[{"type":"Feature","geometry":{"bbox":[35.374586886598934,50.885782371748554,35.423518050386924,50.90685965605501],"type":"Polygon","coordinates":[[[35.40302554925348,50.87944509423602],[35.40204613281962,50.87970122381097],[35.4004148175854,50.88015822467574],[35.39711224594488,50.881770795933136],[35.39266675067021,50.883694400339266],[35.39152808345094,50.8840842173426],[35.390367822982995,50.88449350196856],[35.38976466470302,50.884762861776686],[35.38906938820069,50.885143571329344],[35.38834183183307,50.88568755505163],[35.38834183123159,50.885687663705546],[35.38824271149236,50.88576177767428],[35.388223039119346,50.88577648835215],[35.387752375302945,50.88631285493304],[35.38023312968216,50.89542072860757],[35.38054965486594,50.895551225481626],[35.38313248846021,50.89634669271565],[35.38640334387199,50.89732213519691],[35.38861177173265,50.897829031107996],[35.39464563853532,50.8995519798187],[35.39692392756861,50.90024289966097],[35.403009145822445,50.90207382893813],[35.40337910048203,50.90224230510498],[35.403681879130154,50.90242168365406],[35.40390971878826,50.902607363843856],[35.40390972776977,50.90260740525266],[35.40390976973693,50.90260744025328],[35.403939921000294,50.90275435779665],[35.40382819583649,50.90292323879966],[35.40362967453273,50.90316053518018],[35.40344079306161,50.90329292494009],[35.40309402358213,50.90342857238947],[35.40262123450016,50.90357388258732],[35.40237750572597,50.903667966303786],[35.40199889585635,50.90380664531035],[35.401346888805236,50.904117521534424],[35.40091754911096,50.90433100919597],[35.40040999291016,50.90456038011326],[35.40003532764401,50.904739423150104],[35.3996344949596,50.90499515001035],[35.39906897161999,50.905268546520176],[35.39850564294068,50.90558472412549],[35.39801480455631,50.90584705433454],[35.397718004279476,50.9060768463385],[35.397509719704395,50.906271498666655],[35.39731432465251,50.906570590289085],[35.39722033275055,50.90709414168373],[35.397187992706684,50.90721542190279],[35.39709234011517,50.90757412968903],[35.3970512068026,50.90779943538848],[35.39698334267209,50.908171114601366],[35.39708855750277,50.908436983205576],[35.3970885882291,50.90843703298051],[35.39708860389424,50.90843705968807],[35.39737474389746,50.90876796004841],[35.39827760109474,50.90930108290254],[35.399415475130034,50.909763143453524],[35.40040676019933,50.91000927937573],[35.40190073474239,50.910368804595464],[35.40189361268277,50.91097452651874],[35.40210651791868,50.91102258492273],[35.4023158144249,50.91107632510564],[35.402521105906395,50.91113564572186],[35.402698563219396,50.91119250230899],[35.40287236461498,50.91125349612037],[35.40304225866108,50.911318537875445],[35.403207994180875,50.91138753351842],[35.41030010532941,50.895428059196526],[35.41075835587714,50.893936814419355],[35.4076937285562,50.88777900631672],[35.407081858265634,50.88641507940271],[35.407228891470645,50.88490291865741],[35.4077430116077,50.88264106155187],[35.407978512120934,50.88160493813105],[35.40800754214505,50.88117176670714],[35.40800399459571,50.88102512773924],[35.40798224103286,50.880878966815395],[35.40795483631308,50.880694840408864],[35.40790492704093,50.88049306070726],[35.407778856370854,50.88016318452801],[35.40773347573785,50.88004444117375],[35.407717590086484,50.88000287975401],[35.40749594282302,50.87955541265336],[35.40736315268621,50.879341902659],[35.407252815840565,50.879347394004036],[35.40657295543529,50.879296436299775],[35.404499707558514,50.879292192417246],[35.40302554925348,50.87944509423602]]]},"properties":{"Shape__Are":3789819.97419,"Shape__Len":9802.82536531,"area":0,"GlobalID":"{2c73fcca-595c-4edb-bd6c-90ef04c8779a}","Creator":"cweinstein_understandingwar","EditDate":"2025-09-17T00:00:00.000Z","Editor":"bcordola_understandingwar","Shape__A_1":3789829.97455,"Shape__L_1":9802.83729335,"publicatio":null,"CreationDa":"2025-03-19T00:00:00.000Z","Area_KM":3.78983514026,"GlobalID_2":"{9D4E5080-D1AF-4E00-9423-C60428115233}"}},{"type":"Feature","geometry":{"bbox":[34.54776198234284,51.24242960104067,34.57722218730647,51.24700335507026],"type":"Polygon","coordinates":[[[34.57137074900636,51.23864663136364],[34.571591970641705,51.2379928212979],[34.57170190269858,51.23732537241256],[34.57126858989762,51.237513110520105],[34.567222735017964,51.23931107780752],[34.55940601788704,51.24280701204835],[34.55924991933547,51.24288246373958],[34.556236082074264,51.24418423303128],[34.554039654195826,51.24537451583371],[34.5505651001348,51.24734909064166],[34.551729243450886,51.24730831625658],[34.55192174734146,51.24730157474114],[34.55214761610945,51.24728340841374],[34.5522043994059,51.24727629951704],[34.55246725188403,51.24724339065477],[34.55278504044061,51.24720722215277],[34.55344950698307,51.24715899577467],[34.55428731184946,51.24723132812376],[34.55503485616612,51.24738340234788],[34.555057711532235,51.247388052627144],[34.556194044562716,51.247629164731514],[34.557340010666934,51.247840137474256],[34.558553385750606,51.248045079849014],[34.56012306851974,51.24827413284817],[34.56108606415203,51.24844290910972],[34.56197202132742,51.24856948794751],[34.563069835341004,51.24876840164289],[34.56388838300454,51.24893114824982],[34.56517879764422,51.2491481416251],[34.56570844516846,51.24925060949429],[34.566228465065436,51.24931691481722],[34.56645958327297,51.249298830261615],[34.566526992665665,51.249262662707324],[34.56662328880092,51.24918430187084],[34.566748478642516,51.24899744206751],[34.5668929219463,51.248611663620565],[34.56697958859733,51.24833438521279],[34.56719144544115,51.24799079724877],[34.56751885615971,51.24736389200156],[34.56802923273133,51.24629090268367],[34.56826034961818,51.24584482183108],[34.56888628054024,51.244428181177405],[34.569232949385665,51.243614346862984],[34.57030848755852,51.24127183716433],[34.570378889610325,51.24111849797904],[34.57137074900636,51.23864663136364]]]},"properties":{"Shape__Are":810088.010929,"Shape__Len":4378.04382608,"area":0,"GlobalID":"{545ec822-6bad-4210-b1d6-16f8fcb13457}","Creator":"qdeutschendorf_understandingwar","EditDate":"2025-09-17T00:00:00.000Z","Editor":"bcordola_understandingwar","Shape__A_1":810088.010742,"Shape__L_1":4378.04382608,"publicatio":null,"CreationDa":"2025-06-03T00:00:00.000Z","Area_KM":0.810088011448,"GlobalID_2":"{F193B7D7-63C6-405D-AEFC-6D51BA250BBB}"}}],"fileName":"Kursk Incursion Ukrainian Advances in Russia September 4, 2026"}